
G28
G90

G1 F1200.00

G1 Z15.0000
G1 X0.0000 Y0.0000

M106 S255

G1 Z15.0000


G1 F120.00
G1 X-25.4250 Y-16.8749
G1 F60.00
G1 Z0.250000
G1 F120.00
G1 X-25.4250 Y17.6753
G1 Z2.0000
G1 X-25.4250 Y22.5253
G1 F60.00
G1 Z0.250000
G1 F120.00
G1 X-25.4250 Y39.8004
G1 X-25.4230 Y39.8421
G1 X-25.4168 Y39.8833
G1 X-25.4067 Y39.9238
G1 X-25.3926 Y39.9630
G1 X-25.3748 Y40.0007
G1 X-25.3534 Y40.0365
G1 X-25.3285 Y40.0700
G1 X-25.3005 Y40.1009
G1 X-25.2696 Y40.1289
G1 X-25.2361 Y40.1538
G1 X-25.2003 Y40.1752
G1 X-25.1626 Y40.1930
G1 X-25.1234 Y40.2071
G1 X-25.0829 Y40.2172
G1 X-25.0417 Y40.2234
G1 X-25.0000 Y40.2254
G1 X-14.7249 Y40.2254
G1 Z2.0000
G1 X-9.8749 Y40.2254
G1 F60.00
G1 Z0.250000
G1 F120.00
G1 X10.6753 Y40.2254
G1 Z2.0000
G1 X15.5253 Y40.2254
G1 F60.00
G1 Z0.250000
G1 F120.00
G1 X25.8004 Y40.2254
G1 X25.8421 Y40.2234
G1 X25.8833 Y40.2172
G1 X25.9238 Y40.2071
G1 X25.9630 Y40.1930
G1 X26.0007 Y40.1752
G1 X26.0365 Y40.1538
G1 X26.0700 Y40.1289
G1 X26.1009 Y40.1009
G1 X26.1289 Y40.0700
G1 X26.1538 Y40.0365
G1 X26.1752 Y40.0007
G1 X26.1930 Y39.9630
G1 X26.2071 Y39.9238
G1 X26.2172 Y39.8833
G1 X26.2234 Y39.8421
G1 X26.2254 Y39.8004
G1 X26.2254 Y22.5253
G1 Z2.0000
G1 X26.2254 Y17.6753
G1 F60.00
G1 Z0.250000
G1 F120.00
G1 X26.2254 Y-16.8749
G1 Z2.0000
G1 X26.2254 Y-21.7249
G1 F60.00
G1 Z0.250000
G1 F120.00
G1 X26.2254 Y-39.0000
G1 X26.2234 Y-39.0417
G1 X26.2172 Y-39.0829
G1 X26.2071 Y-39.1234
G1 X26.1930 Y-39.1626
G1 X26.1752 Y-39.2003
G1 X26.1538 Y-39.2361
G1 X26.1289 Y-39.2696
G1 X26.1009 Y-39.3005
G1 X26.0700 Y-39.3285
G1 X26.0365 Y-39.3534
G1 X26.0007 Y-39.3748
G1 X25.9630 Y-39.3926
G1 X25.9238 Y-39.4067
G1 X25.8833 Y-39.4168
G1 X25.8421 Y-39.4230
G1 X25.8004 Y-39.4250
G1 X15.5253 Y-39.4250
G1 Z2.0000
G1 X10.6753 Y-39.4250
G1 F60.00
G1 Z0.250000
G1 F120.00
G1 X-9.8749 Y-39.4250
G1 Z2.0000
G1 X-14.7249 Y-39.4250
G1 F60.00
G1 Z0.250000
G1 F120.00
G1 X-25.0000 Y-39.4250
G1 X-25.0417 Y-39.4230
G1 X-25.0829 Y-39.4168
G1 X-25.1234 Y-39.4067
G1 X-25.1626 Y-39.3926
G1 X-25.2003 Y-39.3748
G1 X-25.2361 Y-39.3534
G1 X-25.2696 Y-39.3285
G1 X-25.3005 Y-39.3005
G1 X-25.3285 Y-39.2696
G1 X-25.3534 Y-39.2361
G1 X-25.3748 Y-39.2003
G1 X-25.3926 Y-39.1626
G1 X-25.4067 Y-39.1234
G1 X-25.4168 Y-39.0829
G1 X-25.4230 Y-39.0417
G1 X-25.4250 Y-39.0000
G1 X-25.4250 Y-21.7249
G1 Z2.0000

M107

G1 Z2.0000
G1 Z15.00


