
G28
G90


G1 F1200


G1 Z15.0000



G1 X0.0000 Y0.0000

M106 S255

G1 Z15.0000

G1 F300.00

G1 X20.4002 Y22.4002
G1 Z0.2000

G1 Z2.0000
G1 X-20.2498 Y-28.5998
G1 Z0.2000

G1 Z2.0000
G1 X-20.2498 Y-26.0998
G1 Z0.2000

G1 Z2.0000
G1 X-20.2498 Y-23.5998
G1 Z0.2000

G1 Z2.0000
G1 X-20.2498 Y-21.0998
G1 Z0.2000

G1 Z2.0000
G1 X-19.6318 Y4.5002
G1 Z0.2000

G1 Z2.0000
G1 X-19.6318 Y9.5002
G1 Z0.2000

G1 Z2.0000
G1 X-19.5998 Y-8.5998
G1 Z0.2000

G1 Z2.0000
G1 X-19.5998 Y-3.5998
G1 Z0.2000

G1 Z2.0000
G1 X-18.9798 Y-33.6798
G1 Z0.2000

G1 Z2.0000
G1 X-18.9798 Y-15.8998
G1 Z0.2000

G1 Z2.0000
G1 X-11.3598 Y-33.6798
G1 Z0.2000

G1 Z2.0000
G1 X-11.3598 Y-15.8998
G1 Z0.2000

G1 Z2.0000
G1 X-10.0898 Y-28.5198
G1 Z0.2000

G1 Z2.0000
G1 X-10.0898 Y-26.0198
G1 Z0.2000

G1 Z2.0000
G1 X-10.0898 Y-23.5198
G1 Z0.2000

G1 Z2.0000
G1 X-10.0898 Y-21.0198
G1 Z0.2000

G1 Z2.0000
G1 X-10.0898 Y27.2802
G1 Z0.2000

G1 Z2.0000
G1 X-2.4698 Y6.9602
G1 Z0.2000

G1 Z2.0000
G1 X3.8802 Y-33.6798
G1 Z0.2000

G1 Z2.0000
G1 X3.8802 Y-23.5198
G1 Z0.2000

G1 Z2.0000
G1 X7.0552 Y27.2802
G1 Z0.2000

G1 Z2.0000
G1 X8.9602 Y-33.6798
G1 Z0.2000

G1 Z2.0000
G1 X8.9602 Y-23.5198
G1 Z0.2000

G1 Z2.0000
G1 X14.0402 Y-33.6798
G1 Z0.2000

G1 Z2.0000
G1 X14.0402 Y-23.5198
G1 Z0.2000

G1 Z2.0000
G1 X15.3102 Y27.2802
G1 Z0.2000

G1 Z2.0000
G1 X15.3502 Y32.3602
G1 Z0.2000

G1 Z2.0000
G1 X15.4002 Y22.4002
G1 Z0.2000

G1 Z2.0000
G1 X15.9452 Y6.9602
G1 Z0.2000

G1 Z2.0000
G1 X17.8502 Y27.2802
G1 Z0.2000

G1 Z2.0000
G1 X20.3502 Y32.3602
G1 Z0.2000

G1 Z2.0000
G1 X20.3902 Y27.2802
G1 Z0.2000

G1 Z2.0000

M107

G1 Z15.00


