
G28
G90

G1 Z15.0000

G1 X0.0000 Y0.0000

G1 Z15.0000

M106 S255

G1 F300.00

G1 X-41.1500 Y4.0000
G1 Z-0.7000
G1 Z0
G1 Z3.0000
G1 X42.0350 Y-9.9100
G1 Z-0.7000
G1 Z0
G1 Z3.0000
G1 X42.0350 Y-7.4100
G1 Z-0.7000
G1 Z0
G1 Z3.0000
G1 X42.0350 Y7.8300
G1 Z-0.7000
G1 Z0
G1 Z3.0000
G1 X42.0350 Y10.3300
G1 Z-0.7000
G1 Z0
G1 Z3.0000
G1 X37.5900 Y-1.6950
G1 Z-0.7000
G1 Z0
G1 Z3.0000
G1 X37.5900 Y2.1150
G1 Z-0.7000
G1 Z0
G1 Z3.0000
G1 X36.3200 Y-20.1100
G1 Z-0.7000
G1 Z0
G1 Z3.0000
G1 X36.3200 Y-7.4100
G1 Z-0.7000
G1 Z0
G1 Z3.0000
G1 X36.3200 Y7.8300
G1 Z-0.7000
G1 Z0
G1 Z3.0000
G1 X36.3200 Y20.5300
G1 Z-0.7000
G1 Z0
G1 Z3.0000
G1 X35.0500 Y-25.1900
G1 Z-0.7000
G1 Z0
G1 Z3.0000
G1 X35.0100 Y25.6100
G1 Z-0.7000
G1 Z0
G1 Z3.0000
G1 X32.5500 Y-25.1900
G1 Z-0.7000
G1 Z0
G1 Z3.0000
G1 X32.5100 Y25.6100
G1 Z-0.7000
G1 Z0
G1 Z3.0000
G1 X31.2400 Y-20.1100
G1 Z-0.7000
G1 Z0
G1 Z3.0000
G1 X31.2400 Y-7.4100
G1 Z-0.7000
G1 Z0
G1 Z3.0000
G1 X31.2400 Y7.8300
G1 Z-0.7000
G1 Z0
G1 Z3.0000
G1 X31.2400 Y20.5300
G1 Z-0.7000
G1 Z0
G1 Z3.0000
G1 X24.8900 Y-18.8300
G1 Z-0.7000
G1 Z0
G1 Z3.0000
G1 X24.8900 Y-16.2900
G1 Z-0.7000
G1 Z0
G1 Z3.0000
G1 X24.8900 Y-13.7500
G1 Z-0.7000
G1 Z0
G1 Z3.0000
G1 X24.8900 Y-9.6900
G1 Z-0.7000
G1 Z0
G1 Z3.0000
G1 X24.8900 Y-4.6900
G1 Z-0.7000
G1 Z0
G1 Z3.0000
G1 X24.8900 Y-1.6950
G1 Z-0.7000
G1 Z0
G1 Z3.0000
G1 X24.8900 Y2.1150
G1 Z-0.7000
G1 Z0
G1 Z3.0000
G1 X24.8900 Y5.3300
G1 Z-0.7000
G1 Z0
G1 Z3.0000
G1 X24.8900 Y10.3300
G1 Z-0.7000
G1 Z0
G1 Z3.0000
G1 X24.8900 Y14.1800
G1 Z-0.7000
G1 Z0
G1 Z3.0000
G1 X24.8900 Y16.7200
G1 Z-0.7000
G1 Z0
G1 Z3.0000
G1 X24.8900 Y19.2600
G1 Z-0.7000
G1 Z0
G1 Z3.0000
G1 X18.5400 Y-23.9200
G1 Z-0.7000
G1 Z0
G1 Z3.0000
G1 X18.5400 Y-18.8400
G1 Z-0.7000
G1 Z0
G1 Z3.0000
G1 X18.5400 Y19.2600
G1 Z-0.7000
G1 Z0
G1 Z3.0000
G1 X18.5400 Y24.3400
G1 Z-0.7000
G1 Z0
G1 Z3.0000
G1 X17.2700 Y-15.0300
G1 Z-0.7000
G1 Z0
G1 Z3.0000
G1 X17.2700 Y-2.3300
G1 Z-0.7000
G1 Z0
G1 Z3.0000
G1 X17.2700 Y2.7500
G1 Z-0.7000
G1 Z0
G1 Z3.0000
G1 X17.2700 Y15.4500
G1 Z-0.7000
G1 Z0
G1 Z3.0000
G1 X10.9200 Y-11.2200
G1 Z-0.7000
G1 Z0
G1 Z3.0000
G1 X10.9200 Y11.6400
G1 Z-0.7000
G1 Z0
G1 Z3.0000
G1 X8.4200 Y-11.2200
G1 Z-0.7000
G1 Z0
G1 Z3.0000
G1 X8.4200 Y11.6400
G1 Z-0.7000
G1 Z0
G1 Z3.0000
G1 X5.8400 Y-23.9200
G1 Z-0.7000
G1 Z0
G1 Z3.0000
G1 X5.8400 Y-18.8400
G1 Z-0.7000
G1 Z0
G1 Z3.0000
G1 X5.8400 Y19.2600
G1 Z-0.7000
G1 Z0
G1 Z3.0000
G1 X5.8400 Y24.3400
G1 Z-0.7000
G1 Z0
G1 Z3.0000
G1 X0.8050 Y-18.8400
G1 Z-0.7000
G1 Z0
G1 Z3.0000
G1 X0.8050 Y-16.3000
G1 Z-0.7000
G1 Z0
G1 Z3.0000
G1 X0.8050 Y-13.7600
G1 Z-0.7000
G1 Z0
G1 Z3.0000
G1 X0.7600 Y-25.1900
G1 Z-0.7000
G1 Z0
G1 Z3.0000
G1 X0.7600 Y-22.6900
G1 Z-0.7000
G1 Z0
G1 Z3.0000
G1 X0.7600 Y-9.9100
G1 Z-0.7000
G1 Z0
G1 Z3.0000
G1 X0.7600 Y-4.9100
G1 Z-0.7000
G1 Z0
G1 Z3.0000
G1 X0.7600 Y14.1800
G1 Z-0.7000
G1 Z0
G1 Z3.0000
G1 X0.7600 Y16.7200
G1 Z-0.7000
G1 Z0
G1 Z3.0000
G1 X0.7600 Y19.2600
G1 Z-0.7000
G1 Z0
G1 Z3.0000
G1 X0.7600 Y23.1100
G1 Z-0.7000
G1 Z0
G1 Z3.0000
G1 X0.7600 Y25.6100
G1 Z-0.7000
G1 Z0
G1 Z3.0000
G1 X0.7550 Y5.3700
G1 Z-0.7000
G1 Z0
G1 Z3.0000
G1 X0.7550 Y10.3700
G1 Z-0.7000
G1 Z0
G1 Z3.0000
G1 X-6.9000 Y-12.4900
G1 Z-0.7000
G1 Z0
G1 Z3.0000
G1 X-6.9000 Y12.9100
G1 Z-0.7000
G1 Z0
G1 Z3.0000
G1 X-8.1300 Y-22.6100
G1 Z-0.7000
G1 Z0
G1 Z3.0000
G1 X-8.1300 Y-17.6100
G1 Z-0.7000
G1 Z0
G1 Z3.0000
G1 X-8.1300 Y18.0300
G1 Z-0.7000
G1 Z0
G1 Z3.0000
G1 X-8.1300 Y23.0300
G1 Z-0.7000
G1 Z0
G1 Z3.0000
G1 X-9.4000 Y-12.4900
G1 Z-0.7000
G1 Z0
G1 Z3.0000
G1 X-9.4000 Y12.9100
G1 Z-0.7000
G1 Z0
G1 Z3.0000
G1 X-13.0970 Y28.1500
G1 Z-0.7000
G1 Z0
G1 Z3.0000
G1 X-13.2100 Y-27.7300
G1 Z-0.7000
G1 Z0
G1 Z3.0000
G1 X-14.4800 Y-22.6100
G1 Z-0.7000
G1 Z0
G1 Z3.0000
G1 X-14.4800 Y-17.6100
G1 Z-0.7000
G1 Z0
G1 Z3.0000
G1 X-14.4800 Y18.0300
G1 Z-0.7000
G1 Z0
G1 Z3.0000
G1 X-14.4800 Y23.0300
G1 Z-0.7000
G1 Z0
G1 Z3.0000
G1 X-15.7500 Y-14.3950
G1 Z-0.7000
G1 Z0
G1 Z3.0000
G1 X-15.7500 Y-1.6950
G1 Z-0.7000
G1 Z0
G1 Z3.0000
G1 X-15.7500 Y2.0540
G1 Z-0.7000
G1 Z0
G1 Z3.0000
G1 X-15.7500 Y14.7540
G1 Z-0.7000
G1 Z0
G1 Z3.0000
G1 X-20.8300 Y-22.6500
G1 Z-0.7000
G1 Z0
G1 Z3.0000
G1 X-20.8300 Y-9.9500
G1 Z-0.7000
G1 Z0
G1 Z3.0000
G1 X-20.8300 Y10.3700
G1 Z-0.7000
G1 Z0
G1 Z3.0000
G1 X-20.8300 Y23.0700
G1 Z-0.7000
G1 Z0
G1 Z3.0000
G1 X-25.7980 Y28.1500
G1 Z-0.7000
G1 Z0
G1 Z3.0000
G1 X-25.9100 Y-27.7300
G1 Z-0.7000
G1 Z0
G1 Z3.0000
G1 X-25.9100 Y-22.6500
G1 Z-0.7000
G1 Z0
G1 Z3.0000
G1 X-25.9100 Y-9.9500
G1 Z-0.7000
G1 Z0
G1 Z3.0000
G1 X-25.9100 Y10.3700
G1 Z-0.7000
G1 Z0
G1 Z3.0000
G1 X-25.9100 Y23.0700
G1 Z-0.7000
G1 Z0
G1 Z3.0000
G1 X-29.7200 Y-7.3700
G1 Z-0.7000
G1 Z0
G1 Z3.0000
G1 X-29.7200 Y-2.3700
G1 Z-0.7000
G1 Z0
G1 Z3.0000
G1 X-29.7200 Y2.7900
G1 Z-0.7000
G1 Z0
G1 Z3.0000
G1 X-29.7200 Y7.7900
G1 Z-0.7000
G1 Z0
G1 Z3.0000
G1 X-34.8000 Y-4.8300
G1 Z-0.7000
G1 Z0
G1 Z3.0000
G1 X-34.8000 Y-2.3300
G1 Z-0.7000
G1 Z0
G1 Z3.0000
G1 X-34.8000 Y2.7500
G1 Z-0.7000
G1 Z0
G1 Z3.0000
G1 X-34.8000 Y5.2500
G1 Z-0.7000
G1 Z0
G1 Z3.0000
G1 X-41.1500 Y-3.5000
G1 Z-0.7000
G1 Z0
G1 Z3.0000
G1 X-41.1500 Y-1.0000
G1 Z-0.7000
G1 Z0
G1 Z3.0000
G1 X-41.1500 Y1.5000
G1 Z-0.7000
G1 Z0
G1 Z3.0000
M107
G1 Z15.00


