G28
G90

G1 F1200


G1 Z15.0000

G1 X0.0000 Y0.0000

G1 Z15.0000

G1 F60.00


G1 X44.3970 Y0.7600
G1 Z0.84

G1 Z2.0000
G1 X-40.6930 Y-6.8200
G1 Z0.84

G1 Z2.0000
G1 X-40.6930 Y-4.3200
G1 Z0.84

G1 Z2.0000
G1 X-39.6770 Y3.3400
G1 Z0.84

G1 Z2.0000
G1 X-39.6770 Y5.8400
G1 Z0.84

G1 Z2.0000
G1 X-32.8450 Y2.0800
G1 Z0.84

G1 Z2.0000
G1 X-32.8450 Y4.5800
G1 Z0.84

G1 Z2.0000
G1 X-27.2310 Y-4.2400
G1 Z0.84

G1 Z2.0000
G1 X-27.2310 Y-1.7400
G1 Z0.84

G1 Z2.0000
G1 X-27.2310 Y3.3800
G1 Z0.84

G1 Z2.0000
G1 X-27.2310 Y8.3800
G1 Z0.84

G1 Z2.0000
G1 X-22.1510 Y-4.2800
G1 Z0.84

G1 Z2.0000
G1 X-22.1510 Y3.3400
G1 Z0.84

G1 Z2.0000
G1 X-22.1510 Y7.1500
G1 Z0.84

G1 Z2.0000
G1 X-18.3410 Y-3.9390
G1 Z0.84

G1 Z2.0000
G1 X-17.0710 Y2.0700
G1 Z0.84

G1 Z2.0000
G1 X-14.5310 Y2.0700
G1 Z0.84

G1 Z2.0000
G1 X-14.5310 Y7.1500
G1 Z0.84

G1 Z2.0000
G1 X-11.9910 Y2.0700
G1 Z0.84

G1 Z2.0000
G1 X-10.7210 Y-3.9390
G1 Z0.84

G1 Z2.0000
G1 X-10.7210 Y7.1500
G1 Z0.84

G1 Z2.0000
G1 X-6.2760 Y-2.9700
G1 Z0.84

G1 Z2.0000
G1 X-6.2760 Y2.0300
G1 Z0.84

G1 Z2.0000
G1 X-3.1010 Y7.1500
G1 Z0.84

G1 Z2.0000
G1 X3.2490 Y-3.1460
G1 Z0.84

G1 Z2.0000
G1 X3.2490 Y1.8540
G1 Z0.84

G1 Z2.0000
G1 X13.2570 Y-8.2120
G1 Z0.84

G1 Z2.0000
G1 X13.2570 Y6.9880
G1 Z0.84

G1 Z2.0000
G1 X18.3570 Y-8.2120
G1 Z0.84

G1 Z2.0000
G1 X18.3570 Y6.9880
G1 Z0.84

G1 Z2.0000
G1 X30.5540 Y-4.4920
G1 Z0.84

G1 Z2.0000
G1 X30.5540 Y3.0080
G1 Z0.84

G1 Z2.0000
G1 X44.3970 Y-1.7400
G1 Z0.84

G1 Z2.0000

G1 Z15.00


