G28
G90
M5

G1 F800.00


G1 Z15.0000
G1 X0.0000 Y0.0000

G1 Z15.0000

M3 S18000
G1 F120.00
G1 X11.7650 Y13.2450
G1 F60.00
G1 Z-0.1500
G1 F120.00
G1 X11.7650 Y20.0151
G1 X11.2550 Y20.0151
G1 X11.2550 Y13.2450
G1 X10.7450 Y13.2450
G1 X10.7450 Y20.0151
G1 X10.2350 Y20.0151
G1 X10.2350 Y13.2450
G1 X9.7250 Y13.2450
G1 X9.7250 Y20.0151
G1 X9.2150 Y20.0151
G1 X9.2150 Y13.2450
G1 X8.7050 Y13.2450
G1 X8.7050 Y20.0151
G1 X8.1950 Y20.0151
G1 X8.1950 Y13.2450
G1 X7.6850 Y13.2450
G1 X7.6850 Y20.0151
G1 X7.1750 Y20.0151
G1 X7.1750 Y13.2450
G1 X6.6650 Y13.2450
G1 X6.6650 Y20.0151
G1 X6.1550 Y20.0151
G1 X6.1550 Y13.2450
G1 X5.6450 Y13.2450
G1 X5.6450 Y20.0151
G1 X5.1350 Y20.0151
G1 X5.1350 Y13.2450
G1 X4.6250 Y13.2450
G1 X4.6250 Y20.0151
G1 X4.1150 Y20.0151
G1 X4.1150 Y13.2450
G1 X3.6050 Y13.2450
G1 X3.6050 Y20.0151
G1 X3.0950 Y20.0151
G1 X3.0950 Y13.2450
G1 X2.5850 Y13.2450
G1 X2.5850 Y20.0151
G1 X2.0750 Y20.0151
G1 X2.0750 Y13.2450
G1 X1.5650 Y13.2450
G1 X1.5650 Y20.0151
G1 X1.0550 Y20.0151
G1 X1.0550 Y13.2450
G1 X0.5450 Y13.2450
G1 X0.5450 Y20.0151
G1 Z2.0000
G1 X12.2750 Y13.2286
G1 F60.00
G1 Z-0.1500
G1 F120.00
G1 X12.2750 Y20.0331
G1 Z2.0000
G1 X12.7850 Y20.1423
G1 F60.00
G1 Z-0.1500
G1 F120.00
G1 X12.7850 Y13.1212
G1 Z2.0000
G1 X13.2950 Y12.8862
G1 F60.00
G1 Z-0.1500
G1 F120.00
G1 X13.2950 Y20.3795
G1 Z2.0000
G1 X13.8050 Y20.7971
G1 F60.00
G1 Z-0.1500
G1 F120.00
G1 X13.8050 Y12.4673
G1 Z2.0000
G1 X14.3150 Y11.6183
G1 F60.00
G1 Z-0.1500
G1 F120.00
G1 X14.3150 Y21.6427
G1 Z2.0000
G1 X0.0350 Y20.0151
G1 F60.00
G1 Z-0.1500
G1 F120.00
G1 X0.0350 Y13.2450
G1 X-0.4750 Y13.2450
G1 X-0.4750 Y20.0151
G1 X-0.9850 Y20.0151
G1 X-0.9850 Y13.2450
G1 X-1.4950 Y13.2450
G1 X-1.4950 Y20.0151
G1 X-2.0050 Y20.0151
G1 X-2.0050 Y13.2450
G1 X-2.5150 Y13.2450
G1 X-2.5150 Y20.0151
G1 X-3.0250 Y20.0151
G1 X-3.0250 Y13.2450
G1 X-3.5350 Y13.2450
G1 X-3.5350 Y20.0151
G1 X-4.0450 Y20.0151
G1 X-4.0450 Y13.2450
G1 X-4.5550 Y13.2450
G1 X-4.5550 Y20.0151
G1 X-5.0650 Y20.0151
G1 X-5.0650 Y13.2450
G1 X-5.5750 Y13.2450
G1 X-5.5750 Y20.0151
G1 X-6.0850 Y20.0151
G1 X-6.0850 Y13.2450
G1 X-6.5950 Y13.2450
G1 X-6.5950 Y20.0151
G1 X-7.1050 Y20.0151
G1 X-7.1050 Y13.2450
G1 X-7.6150 Y13.2450
G1 X-7.6150 Y20.0151
G1 X-8.1250 Y20.0151
G1 X-8.1250 Y13.2450
G1 X-8.6350 Y13.2450
G1 X-8.6350 Y20.0151
G1 X-9.1450 Y20.0151
G1 X-9.1450 Y13.2450
G1 X-9.6550 Y13.2450
G1 X-9.6550 Y20.0151
G1 X-10.1650 Y20.0151
G1 X-10.1650 Y13.2450
G1 X-10.6750 Y13.2450
G1 X-10.6750 Y20.0151
G1 X-11.1850 Y20.0151
G1 X-11.1850 Y13.2450
G1 X-11.6950 Y13.2450
G1 X-11.6950 Y20.0151
G1 Z2.0000
G1 X-12.2050 Y20.0403
G1 F60.00
G1 Z-0.1500
G1 F120.00
G1 X-12.2050 Y13.2247
G1 Z2.0000
G1 X-12.7150 Y13.1025
G1 F60.00
G1 Z-0.1500
G1 F120.00
G1 X-12.7150 Y20.1576
G1 Z2.0000
G1 X-13.2250 Y20.4116
G1 F60.00
G1 Z-0.1500
G1 F120.00
G1 X-13.2250 Y12.8545
G1 Z2.0000
G1 X-13.7350 Y12.4131
G1 F60.00
G1 Z-0.1500
G1 F120.00
G1 X-13.7350 Y20.8548
G1 Z2.0000
G1 X-14.2450 Y21.8120
G1 F60.00
G1 Z-0.1500
G1 F120.00
G1 X-14.2450 Y11.4661
G1 Z2.0000
G1 X-14.3308 Y22.3715
G1 F60.00
G1 Z-0.1500
G1 F120.00
G1 X-14.3300 Y22.3563
G1 X-14.3212 Y22.2320
G1 X-14.3192 Y22.2119
G1 X-14.2875 Y21.9902
G1 X-14.2821 Y21.9603
G1 X-14.2670 Y21.8910
G1 X-14.2623 Y21.8717
G1 X-14.1993 Y21.6564
G1 X-14.1897 Y21.6276
G1 X-14.1647 Y21.5607
G1 X-14.1573 Y21.5422
G1 X-14.0644 Y21.3386
G1 X-14.0508 Y21.3114
G1 X-14.0169 Y21.2492
G1 X-14.0067 Y21.2317
G1 X-13.8857 Y21.0432
G1 X-13.8684 Y21.0182
G1 X-13.8258 Y20.9612
G1 X-13.8134 Y20.9455
G1 X-13.6668 Y20.7762
G1 X-13.6462 Y20.7540
G1 X-13.5960 Y20.7038
G1 X-13.5814 Y20.6900
G1 X-13.4122 Y20.5431
G1 X-13.3885 Y20.5241
G1 X-13.3318 Y20.4816
G1 X-13.3153 Y20.4698
G1 X-13.1269 Y20.3486
G1 X-13.1008 Y20.3331
G1 X-13.0386 Y20.2992
G1 X-13.0206 Y20.2899
G1 X-12.8169 Y20.1967
G1 X-12.7888 Y20.1851
G1 X-12.7149 Y20.1576
G1 X-12.6936 Y20.1507
G1 X-12.4787 Y20.0878
G1 X-12.4590 Y20.0830
G1 X-12.3897 Y20.0679
G1 X-12.3598 Y20.0625
G1 X-12.1381 Y20.0308
G1 X-12.1180 Y20.0288
G1 X-11.9937 Y20.0200
G1 X-11.9785 Y20.0191
G1 X-11.8564 Y20.0151
G1 X11.9765 Y20.0151
G1 X11.9917 Y20.0153
G1 X12.1043 Y20.0194
G1 X12.2481 Y20.0297
G1 X12.2682 Y20.0321
G1 X12.4799 Y20.0625
G1 X12.4999 Y20.0659
G1 X12.5791 Y20.0830
G1 X12.5984 Y20.0877
G1 X12.8137 Y20.1507
G1 X12.8425 Y20.1603
G1 X12.9094 Y20.1853
G1 X12.9279 Y20.1927
G1 X13.1401 Y20.2896
G1 X13.1587 Y20.2992
G1 X13.2209 Y20.3331
G1 X13.2470 Y20.3486
G1 X13.4354 Y20.4698
G1 X13.4519 Y20.4816
G1 X13.5089 Y20.5242
G1 X13.5323 Y20.5431
G1 X13.7015 Y20.6899
G1 X13.7161 Y20.7038
G1 X13.7663 Y20.7540
G1 X13.7869 Y20.7762
G1 X13.9335 Y20.9456
G1 X13.9460 Y20.9615
G1 X13.9885 Y21.0182
G1 X14.0058 Y21.0432
G1 X14.1263 Y21.2307
G1 X14.1370 Y21.2492
G1 X14.1709 Y21.3114
G1 X14.1845 Y21.3386
G1 X14.2734 Y21.5331
G1 X14.2813 Y21.5517
G1 X14.3098 Y21.6276
G1 X14.3161 Y21.6457
G1 X14.3796 Y21.8616
G1 X14.3871 Y21.8910
G1 X14.4042 Y21.9702
G1 X14.4076 Y21.9902
G1 X14.4380 Y22.2019
G1 X14.4404 Y22.2220
G1 X14.4501 Y22.3563
G1 X14.4548 Y22.4784
G1 X14.4550 Y22.4936
G1 X14.4550 Y48.8665
G1 X14.4507 Y48.9943
G1 X14.4404 Y49.1381
G1 X14.4380 Y49.1582
G1 X14.4076 Y49.3699
G1 X14.4042 Y49.3899
G1 X14.3871 Y49.4691
G1 X14.3824 Y49.4884
G1 X14.3194 Y49.7037
G1 X14.3098 Y49.7325
G1 X14.2812 Y49.8087
G1 X14.2734 Y49.8270
G1 X14.1845 Y50.0215
G1 X14.1709 Y50.0487
G1 X14.1369 Y50.1109
G1 X14.1268 Y50.1284
G1 X14.0003 Y50.3254
G1 X13.9885 Y50.3419
G1 X13.9459 Y50.3989
G1 X13.9270 Y50.4223
G1 X13.7802 Y50.5915
G1 X13.7663 Y50.6061
G1 X13.7161 Y50.6563
G1 X13.6939 Y50.6769
G1 X13.5245 Y50.8235
G1 X13.5086 Y50.8360
G1 X13.4519 Y50.8785
G1 X13.4269 Y50.8958
G1 X13.2394 Y51.0163
G1 X13.2209 Y51.0269
G1 X13.1587 Y51.0609
G1 X13.1315 Y51.0745
G1 X12.9370 Y51.1634
G1 X12.9184 Y51.1713
G1 X12.8425 Y51.1998
G1 X12.8244 Y51.2061
G1 X12.6085 Y51.2696
G1 X12.5791 Y51.2771
G1 X12.4999 Y51.2942
G1 X12.4799 Y51.2976
G1 X12.2682 Y51.3280
G1 X12.2481 Y51.3304
G1 X12.1138 Y51.3401
G1 X11.9917 Y51.3448
G1 X11.9765 Y51.3450
G1 X-11.8564 Y51.3450
G1 X-11.9842 Y51.3407
G1 X-12.1280 Y51.3304
G1 X-12.1481 Y51.3280
G1 X-12.3598 Y51.2976
G1 X-12.3798 Y51.2942
G1 X-12.4590 Y51.2771
G1 X-12.4784 Y51.2724
G1 X-12.6936 Y51.2094
G1 X-12.7224 Y51.1998
G1 X-12.7986 Y51.1712
G1 X-12.8169 Y51.1634
G1 X-13.0114 Y51.0745
G1 X-13.0386 Y51.0609
G1 X-13.1008 Y51.0270
G1 X-13.1183 Y51.0168
G1 X-13.3153 Y50.8903
G1 X-13.3318 Y50.8785
G1 X-13.3888 Y50.8359
G1 X-13.4122 Y50.8170
G1 X-13.5814 Y50.6702
G1 X-13.5960 Y50.6563
G1 X-13.6462 Y50.6061
G1 X-13.6668 Y50.5839
G1 X-13.8134 Y50.4145
G1 X-13.8259 Y50.3986
G1 X-13.8684 Y50.3419
G1 X-13.8857 Y50.3169
G1 X-14.0062 Y50.1294
G1 X-14.0169 Y50.1109
G1 X-14.0508 Y50.0487
G1 X-14.0644 Y50.0215
G1 X-14.1533 Y49.8270
G1 X-14.1612 Y49.8084
G1 X-14.1897 Y49.7325
G1 X-14.1960 Y49.7144
G1 X-14.2595 Y49.4985
G1 X-14.2670 Y49.4691
G1 X-14.2841 Y49.3899
G1 X-14.2875 Y49.3699
G1 X-14.3179 Y49.1582
G1 X-14.3203 Y49.1381
G1 X-14.3300 Y49.0038
G1 X-14.3347 Y48.8817
G1 X-14.3349 Y48.8665
G1 X-14.3349 Y22.4936
G1 X-14.3308 Y22.3715
G1 Z2.0000
G1 X-14.2450 Y49.5481
G1 F60.00
G1 Z-0.1500
G1 F120.00
G1 X-14.2450 Y51.7650
G1 Z2.0000
G1 X-13.2250 Y50.9485
G1 F60.00
G1 Z-0.1500
G1 F120.00
G1 X-13.2250 Y51.7650
G1 X-13.7350 Y51.7650
G1 X-13.7350 Y50.5053
G1 Z2.0000
G1 X-12.7150 Y51.2024
G1 F60.00
G1 Z-0.1500
G1 F120.00
G1 X-12.7150 Y51.7650
G1 X-12.2050 Y51.7650
G1 X-12.2050 Y51.3198
G1 Z2.0000
G1 X-11.6950 Y51.3450
G1 F60.00
G1 Z-0.1500
G1 F120.00
G1 X-11.6950 Y51.7650
G1 X-11.1850 Y51.7650
G1 X-11.1850 Y51.3450
G1 X-10.6750 Y51.3450
G1 X-10.6750 Y51.7650
G1 X-10.1650 Y51.7650
G1 X-10.1650 Y51.3450
G1 X-9.6550 Y51.3450
G1 X-9.6550 Y51.7650
G1 X-9.1450 Y51.7650
G1 X-9.1450 Y51.3450
G1 X-8.6350 Y51.3450
G1 X-8.6350 Y51.7650
G1 X-8.1250 Y51.7650
G1 X-8.1250 Y51.3450
G1 X-7.6150 Y51.3450
G1 X-7.6150 Y51.7650
G1 X-7.1050 Y51.7650
G1 X-7.1050 Y51.3450
G1 X-6.5950 Y51.3450
G1 X-6.5950 Y51.7650
G1 X-6.0850 Y51.7650
G1 X-6.0850 Y51.3450
G1 X-5.5750 Y51.3450
G1 X-5.5750 Y51.7650
G1 X-5.0650 Y51.7650
G1 X-5.0650 Y51.3450
G1 X-4.5550 Y51.3450
G1 X-4.5550 Y51.7650
G1 X-4.0450 Y51.7650
G1 X-4.0450 Y51.3450
G1 X-3.5350 Y51.3450
G1 X-3.5350 Y51.7650
G1 X-3.0250 Y51.7650
G1 X-3.0250 Y51.3450
G1 X-2.5150 Y51.3450
G1 X-2.5150 Y51.7650
G1 X-2.0050 Y51.7650
G1 X-2.0050 Y51.3450
G1 X-1.4950 Y51.3450
G1 X-1.4950 Y51.7650
G1 X-0.9850 Y51.7650
G1 X-0.9850 Y51.3450
G1 X-0.4750 Y51.3450
G1 X-0.4750 Y51.7650
G1 X0.0350 Y51.7650
G1 X0.0350 Y51.3450
G1 X0.5450 Y51.3450
G1 X0.5450 Y51.7650
G1 X1.0550 Y51.7650
G1 X1.0550 Y51.3450
G1 X1.5650 Y51.3450
G1 X1.5650 Y51.7650
G1 X2.0750 Y51.7650
G1 X2.0750 Y51.3450
G1 X2.5850 Y51.3450
G1 X2.5850 Y51.7650
G1 X3.0950 Y51.7650
G1 X3.0950 Y51.3450
G1 X3.6050 Y51.3450
G1 X3.6050 Y51.7650
G1 X4.1150 Y51.7650
G1 X4.1150 Y51.3450
G1 X4.6250 Y51.3450
G1 X4.6250 Y51.7650
G1 X5.1350 Y51.7650
G1 X5.1350 Y51.3450
G1 X5.6450 Y51.3450
G1 X5.6450 Y51.7650
G1 X6.1550 Y51.7650
G1 X6.1550 Y51.3450
G1 X6.6650 Y51.3450
G1 X6.6650 Y51.7650
G1 X7.1750 Y51.7650
G1 X7.1750 Y51.3450
G1 X7.6850 Y51.3450
G1 X7.6850 Y51.7650
G1 X8.1950 Y51.7650
G1 X8.1950 Y51.3450
G1 X8.7050 Y51.3450
G1 X8.7050 Y51.7650
G1 X9.2150 Y51.7651
G1 X9.2150 Y51.3450
G1 X9.7250 Y51.3450
G1 X9.7250 Y51.7651
G1 X10.2350 Y51.7651
G1 X10.2350 Y51.3450
G1 X10.7450 Y51.3450
G1 X10.7450 Y51.7651
G1 X11.2550 Y51.7651
G1 X11.2550 Y51.3450
G1 X11.7650 Y51.3450
G1 X11.7650 Y51.7651
G1 X12.2750 Y51.7651
G1 X12.2750 Y51.3270
G1 Z2.0000
G1 X-25.0548 Y53.4501
G1 F60.00
G1 Z-0.1500
G1 F120.00
G1 X-25.0548 Y56.0100
G1 X-28.1148 Y56.0656
G1 X-28.1148 Y53.3945
G1 X-27.6048 Y52.9807
G1 X-27.6048 Y56.4794
G1 X-27.0948 Y56.6827
G1 X-27.0948 Y52.7774
G1 X-26.5848 Y52.7170
G1 X-26.5848 Y56.7431
G1 X-26.4125 Y56.7347
G1 X-26.6100 Y56.7444
G1 X-26.8074 Y56.7347
G1 X-27.0029 Y56.7057
G1 X-27.1947 Y56.6576
G1 X-27.3808 Y56.5910
G1 X-27.5595 Y56.5065
G1 X-27.7290 Y56.4049
G1 X-27.8878 Y56.2871
G1 X-28.0343 Y56.1544
G1 X-28.1670 Y56.0079
G1 X-28.2848 Y55.8491
G1 X-28.3864 Y55.6796
G1 X-28.4709 Y55.5009
G1 X-28.5375 Y55.3148
G1 X-28.5856 Y55.1230
G1 X-28.6146 Y54.9275
G1 X-28.6243 Y54.7300
G1 X-28.6146 Y54.5326
G1 X-28.5856 Y54.3371
G1 X-28.5375 Y54.1453
G1 X-28.4709 Y53.9592
G1 X-28.3864 Y53.7805
G1 X-28.2848 Y53.6110
G1 X-28.1670 Y53.4522
G1 X-28.0343 Y53.3057
G1 X-27.8878 Y53.1730
G1 X-27.7290 Y53.0552
G1 X-27.5595 Y52.9536
G1 X-27.3808 Y52.8691
G1 X-27.1947 Y52.8025
G1 X-27.0029 Y52.7544
G1 X-26.8074 Y52.7254
G1 X-26.6100 Y52.7157
G1 X-26.4125 Y52.7254
G1 X-26.2170 Y52.7544
G1 X-26.0252 Y52.8025
G1 X-25.8391 Y52.8691
G1 X-25.6604 Y52.9536
G1 X-25.4909 Y53.0552
G1 X-25.3321 Y53.1730
G1 X-25.1856 Y53.3057
G1 X-25.0529 Y53.4522
G1 X-24.9351 Y53.6110
G1 X-24.8335 Y53.7805
G1 X-24.7490 Y53.9592
G1 X-24.6824 Y54.1453
G1 X-24.6343 Y54.3371
G1 X-24.6053 Y54.5326
G1 X-24.5956 Y54.7300
G1 X-24.6053 Y54.9275
G1 X-24.6343 Y55.1230
G1 X-24.6824 Y55.3148
G1 X-24.7490 Y55.5009
G1 X-24.8335 Y55.6796
G1 X-24.9351 Y55.8491
G1 X-25.0529 Y56.0079
G1 X-25.1856 Y56.1544
G1 X-25.3321 Y56.2871
G1 X-25.4909 Y56.4049
G1 X-25.6604 Y56.5065
G1 X-25.8391 Y56.5910
G1 X-26.0252 Y56.6576
G1 X-26.2170 Y56.7057
G1 X-26.4125 Y56.7347
G1 X-26.0748 Y56.6700
G1 X-26.0748 Y52.7901
G1 X-25.5648 Y53.0109
G1 X-25.5648 Y56.4492
G1 Z2.0000
G1 X-25.8049 Y57.6850
G1 F60.00
G1 Z-0.1500
G1 F120.00
G1 X-25.8049 Y60.5550
G1 X-25.2949 Y59.5387
G1 X-25.2949 Y60.5550
G1 X-24.7849 Y60.5550
G1 X-24.7849 Y59.9712
G1 Z2.0000
G1 X-26.3149 Y57.7807
G1 F60.00
G1 Z-0.1500
G1 F120.00
G1 X-26.3149 Y60.5550
G1 X-26.8249 Y60.5550
G1 X-26.8249 Y57.7852
G1 Z2.0000
G1 X-27.3349 Y57.7050
G1 F60.00
G1 Z-0.1500
G1 F120.00
G1 X-27.3349 Y60.5550
G1 X-27.8449 Y60.5550
G1 X-27.8449 Y57.5332
G1 Z2.0000
G1 X-28.3549 Y57.2481
G1 F60.00
G1 Z-0.1500
G1 F120.00
G1 X-28.3549 Y60.5550
G1 X-28.8649 Y60.5550
G1 X-28.8649 Y56.8016
G1 Z2.0000
G1 X-29.3749 Y56.0457
G1 F60.00
G1 Z-0.1500
G1 F120.00
G1 X-29.3749 Y60.5550
G1 X-29.8849 Y60.5550
G1 X-29.8849 Y53.8340
G1 Z2.0000
G1 X-30.3949 Y53.8511
G1 F60.00
G1 Z-0.1500
G1 F120.00
G1 X-30.3949 Y60.5550
G1 X-30.9049 Y60.5550
G1 X-30.9049 Y53.7234
G1 Z2.0000
G1 X-31.4149 Y53.4187
G1 F60.00
G1 Z-0.1500
G1 F120.00
G1 X-31.4149 Y60.5550
G1 X-31.9249 Y60.5550
G1 X-31.9249 Y52.7636
G1 Z2.0000
G1 X-24.2749 Y60.1751
G1 F60.00
G1 Z-0.1500
G1 F120.00
G1 X-24.2749 Y60.5550
G1 X-23.7649 Y60.5550
G1 X-23.7649 Y60.2350
G1 X-23.2549 Y60.2350
G1 X-23.2549 Y60.5550
G1 X-22.7449 Y60.5550
G1 X-22.7449 Y60.2350
G1 X-22.2349 Y60.2350
G1 X-22.2349 Y60.5550
G1 X-21.7249 Y60.5550
G1 X-21.7249 Y60.2350
G1 X-21.2149 Y60.2350
G1 X-21.2149 Y60.5550
G1 X-20.7049 Y60.5550
G1 X-20.7049 Y60.2350
G1 X-20.1949 Y60.2350
G1 X-20.1949 Y60.5550
G1 X-19.6849 Y60.5550
G1 X-19.6849 Y60.2350
G1 X-19.1749 Y60.2350
G1 X-19.1749 Y60.5550
G1 X-18.6649 Y60.5550
G1 X-18.6649 Y60.2350
G1 X-18.1549 Y60.2350
G1 X-18.1549 Y60.5550
G1 X-17.6449 Y60.5550
G1 X-17.6449 Y60.2350
G1 X-17.1349 Y60.2350
G1 X-17.1349 Y60.5550
G1 X-16.6249 Y60.5550
G1 X-16.6249 Y60.2350
G1 X-16.1149 Y60.2350
G1 X-16.1149 Y60.5550
G1 X-15.6049 Y60.5550
G1 X-15.6049 Y60.2350
G1 X-15.0949 Y60.2350
G1 X-15.0949 Y60.5550
G1 X-14.5849 Y60.5550
G1 X-14.5849 Y60.2350
G1 X-14.0749 Y60.2350
G1 X-14.0749 Y60.5550
G1 X-13.5649 Y60.5550
G1 X-13.5649 Y60.2350
G1 X-13.0549 Y60.2350
G1 X-13.0549 Y60.5550
G1 X-12.5449 Y60.5550
G1 X-12.5449 Y60.2350
G1 X-12.0349 Y60.2350
G1 X-12.0349 Y60.5550
G1 X-11.5249 Y60.5550
G1 X-11.5249 Y60.2350
G1 X-11.0149 Y60.2350
G1 X-11.0149 Y60.5550
G1 X-10.5049 Y60.5550
G1 X-10.5049 Y60.2350
G1 X-9.9949 Y60.2350
G1 X-9.9949 Y60.5550
G1 X-9.4849 Y60.5550
G1 X-9.4849 Y60.2350
G1 X-8.9749 Y60.2350
G1 X-8.9749 Y60.5550
G1 X-8.4649 Y60.5550
G1 X-8.4649 Y60.2350
G1 X-7.9549 Y60.2350
G1 X-7.9549 Y60.5550
G1 X-7.4449 Y60.5550
G1 X-7.4449 Y60.2350
G1 X-6.9349 Y60.2350
G1 X-6.9349 Y60.5550
G1 X-6.4249 Y60.5550
G1 X-6.4249 Y60.2350
G1 X-5.9149 Y60.2350
G1 X-5.9149 Y60.5550
G1 X-5.4049 Y60.5550
G1 X-5.4049 Y60.2350
G1 X-4.8949 Y60.2350
G1 X-4.8949 Y60.5550
G1 X-4.3849 Y60.5550
G1 X-4.3849 Y60.2350
G1 X-3.8749 Y60.2350
G1 X-3.8749 Y60.5550
G1 X-3.3649 Y60.5550
G1 X-3.3649 Y60.2350
G1 X-2.8549 Y60.2350
G1 X-2.8549 Y60.5550
G1 X-2.3449 Y60.5550
G1 X-2.3449 Y60.2350
G1 X-1.8349 Y60.2350
G1 X-1.8349 Y60.5550
G1 X-1.3249 Y60.5550
G1 X-1.3249 Y60.2350
G1 X-0.8149 Y60.2350
G1 X-0.8149 Y60.5550
G1 X-0.3049 Y60.5550
G1 X-0.3049 Y60.2350
G1 X0.2051 Y60.2350
G1 X0.2051 Y60.5550
G1 X0.7151 Y60.5550
G1 X0.7151 Y60.2350
G1 X1.2251 Y60.2350
G1 X1.2251 Y60.5550
G1 X1.7351 Y60.5550
G1 X1.7351 Y60.2350
G1 X2.2451 Y60.2350
G1 X2.2451 Y60.5550
G1 X2.7551 Y60.5550
G1 X2.7551 Y60.2350
G1 X3.2651 Y60.2350
G1 X3.2651 Y60.5550
G1 X3.7751 Y60.5550
G1 X3.7751 Y60.2350
G1 X4.2851 Y60.2350
G1 X4.2851 Y60.5550
G1 X4.7951 Y60.5550
G1 X4.7951 Y60.2350
G1 X5.3051 Y60.2350
G1 X5.3051 Y60.5550
G1 X5.8151 Y60.5550
G1 X5.8151 Y60.2350
G1 X6.3251 Y60.2350
G1 X6.3251 Y60.5550
G1 X6.8351 Y60.5550
G1 X6.8351 Y60.2350
G1 X7.3451 Y60.2350
G1 X7.3451 Y60.5550
G1 X7.8551 Y60.5550
G1 X7.8551 Y60.2350
G1 X8.3651 Y60.2350
G1 X8.3651 Y60.5550
G1 X8.8751 Y60.5550
G1 X8.8751 Y60.2350
G1 X9.3851 Y60.2350
G1 X9.3851 Y60.5550
G1 X9.8951 Y60.5550
G1 X9.8951 Y60.2350
G1 X10.4051 Y60.2350
G1 X10.4051 Y60.5550
G1 X10.9151 Y60.5550
G1 X10.9151 Y60.2350
G1 X11.4251 Y60.2350
G1 X11.4251 Y60.5550
G1 X11.9351 Y60.5550
G1 X11.9351 Y60.2350
G1 X12.4451 Y60.2350
G1 X12.4451 Y60.5550
G1 X12.9551 Y60.5550
G1 X12.9551 Y60.2350
G1 X13.4651 Y60.2350
G1 X13.4651 Y60.5550
G1 X13.9751 Y60.5550
G1 X13.9751 Y60.2350
G1 X14.4851 Y60.2350
G1 X14.4851 Y60.5550
G1 X14.9951 Y60.5550
G1 X14.9951 Y60.2350
G1 X15.5051 Y60.2350
G1 X15.5051 Y60.5550
G1 X16.0151 Y60.5550
G1 X16.0151 Y60.2350
G1 X16.5251 Y60.2350
G1 X16.5251 Y60.5550
G1 X17.0351 Y60.5550
G1 X17.0351 Y60.2350
G1 X17.5451 Y60.2350
G1 X17.5451 Y60.5550
G1 X18.0551 Y60.5550
G1 X18.0551 Y60.2350
G1 X18.5651 Y60.2350
G1 X18.5651 Y60.5550
G1 X19.0751 Y60.5550
G1 X19.0751 Y60.2350
G1 X19.5851 Y60.2350
G1 X19.5851 Y60.5550
G1 X20.0951 Y60.5550
G1 X20.0951 Y60.2350
G1 X20.6051 Y60.2350
G1 X20.6051 Y60.5550
G1 X21.1151 Y60.5550
G1 X21.1151 Y60.2350
G1 X21.6251 Y60.2350
G1 X21.6251 Y60.5550
G1 X22.1351 Y60.5550
G1 X22.1351 Y60.2350
G1 X22.6451 Y60.2350
G1 X22.6451 Y60.5550
G1 X23.1551 Y60.5550
G1 X23.1551 Y60.2350
G1 X23.6651 Y60.2350
G1 X23.6651 Y60.5550
G1 X24.1751 Y60.5550
G1 X24.1751 Y60.2168
G1 Z2.0000
G1 X12.7850 Y51.2178
G1 F60.00
G1 Z-0.1500
G1 F120.00
G1 X12.7850 Y51.7651
G1 X13.2950 Y51.7651
G1 X13.2950 Y50.9806
G1 Z2.0000
G1 X13.8050 Y50.5630
G1 F60.00
G1 Z-0.1500
G1 F120.00
G1 X13.8050 Y51.7651
G1 X14.3150 Y51.7651
G1 X14.3150 Y49.7174
G1 Z2.0000
G1 X14.8250 Y51.7651
G1 F60.00
G1 Z-0.1500
G1 F120.00
G1 X14.8250 Y-51.5250
G1 X14.3150 Y-51.5250
G1 X14.3150 Y-49.4782
G1 Z2.0000
G1 X13.8050 Y-50.3272
G1 F60.00
G1 Z-0.1500
G1 F120.00
G1 X13.8050 Y-51.5250
G1 X13.2950 Y-51.5250
G1 X13.2950 Y-50.7461
G1 Z2.0000
G1 X12.7850 Y-50.9811
G1 F60.00
G1 Z-0.1500
G1 F120.00
G1 X12.7850 Y-51.5250
G1 X12.2750 Y-51.5250
G1 X12.2750 Y-51.0885
G1 Z2.0000
G1 X11.7650 Y-51.1049
G1 F60.00
G1 Z-0.1500
G1 F120.00
G1 X11.7650 Y-51.5250
G1 X11.2550 Y-51.5250
G1 X11.2550 Y-51.1049
G1 X10.7450 Y-51.1049
G1 X10.7450 Y-51.5250
G1 X10.2350 Y-51.5250
G1 X10.2350 Y-51.1049
G1 X9.7250 Y-51.1049
G1 X9.7250 Y-51.5250
G1 X9.2150 Y-51.5250
G1 X9.2150 Y-51.1049
G1 X8.7050 Y-51.1049
G1 X8.7050 Y-51.5250
G1 X8.1950 Y-51.5250
G1 X8.1950 Y-51.1049
G1 X7.6850 Y-51.1049
G1 X7.6850 Y-51.5250
G1 X7.1750 Y-51.5250
G1 X7.1750 Y-51.1049
G1 X6.6650 Y-51.1049
G1 X6.6650 Y-51.5250
G1 X6.1550 Y-51.5250
G1 X6.1550 Y-51.1049
G1 X5.6450 Y-51.1049
G1 X5.6450 Y-51.5250
G1 X5.1350 Y-51.5250
G1 X5.1350 Y-51.1049
G1 X4.6250 Y-51.1049
G1 X4.6250 Y-51.5250
G1 X4.1150 Y-51.5250
G1 X4.1150 Y-51.1049
G1 X3.6050 Y-51.1049
G1 X3.6050 Y-51.5250
G1 X3.0950 Y-51.5250
G1 X3.0950 Y-51.1049
G1 X2.5850 Y-51.1049
G1 X2.5850 Y-51.5250
G1 X2.0750 Y-51.5250
G1 X2.0750 Y-51.1049
G1 X1.5650 Y-51.1049
G1 X1.5650 Y-51.5250
G1 X1.0550 Y-51.5250
G1 X1.0550 Y-51.1049
G1 X0.5450 Y-51.1049
G1 X0.5450 Y-51.5250
G1 X0.0350 Y-51.5250
G1 X0.0350 Y-51.1049
G1 X-0.4750 Y-51.1049
G1 X-0.4750 Y-51.5250
G1 X-0.9850 Y-51.5250
G1 X-0.9850 Y-51.1049
G1 X-1.4950 Y-51.1049
G1 X-1.4950 Y-51.5250
G1 X-2.0050 Y-51.5250
G1 X-2.0050 Y-51.1049
G1 X-2.5150 Y-51.1049
G1 X-2.5150 Y-51.5250
G1 X-3.0250 Y-51.5250
G1 X-3.0250 Y-51.1049
G1 X-3.5350 Y-51.1049
G1 X-3.5350 Y-51.5250
G1 X-4.0450 Y-51.5250
G1 X-4.0450 Y-51.1049
G1 X-4.5550 Y-51.1049
G1 X-4.5550 Y-51.5250
G1 X-5.0650 Y-51.5250
G1 X-5.0650 Y-51.1049
G1 X-5.5750 Y-51.1049
G1 X-5.5750 Y-51.5250
G1 X-6.0850 Y-51.5250
G1 X-6.0850 Y-51.1049
G1 X-6.5950 Y-51.1049
G1 X-6.5950 Y-51.5250
G1 X-7.1050 Y-51.5250
G1 X-7.1050 Y-51.1049
G1 X-7.6150 Y-51.1049
G1 X-7.6150 Y-51.5250
G1 X-8.1250 Y-51.5250
G1 X-8.1250 Y-51.1049
G1 X-8.6350 Y-51.1049
G1 X-8.6350 Y-51.5250
G1 X-9.1450 Y-51.5250
G1 X-9.1450 Y-51.1049
G1 X-9.6550 Y-51.1049
G1 X-9.6550 Y-51.5250
G1 X-10.1650 Y-51.5250
G1 X-10.1650 Y-51.1049
G1 X-10.6750 Y-51.1049
G1 X-10.6750 Y-51.5250
G1 X-11.1850 Y-51.5250
G1 X-11.1850 Y-51.1049
G1 X-11.6950 Y-51.1049
G1 X-11.6950 Y-51.5250
G1 X-12.2050 Y-51.5250
G1 X-12.2050 Y-51.0846
G1 Z2.0000
G1 X-12.7150 Y-50.9624
G1 F60.00
G1 Z-0.1500
G1 F120.00
G1 X-12.7150 Y-51.5250
G1 X-13.2250 Y-51.5250
G1 X-13.2250 Y-50.7144
G1 Z2.0000
G1 X-13.7350 Y-50.2730
G1 F60.00
G1 Z-0.1500
G1 F120.00
G1 X-13.7350 Y-51.5250
G1 X-14.2450 Y-51.5250
G1 X-14.2450 Y-49.3260
G1 Z2.0000
G1 X-14.3334 Y-48.7129
G1 F60.00
G1 Z-0.1500
G1 F120.00
G1 X-14.3326 Y-48.7280
G1 X-14.3161 Y-48.9593
G1 X-14.3128 Y-48.9895
G1 X-14.3027 Y-49.0599
G1 X-14.2993 Y-49.0799
G1 X-14.2518 Y-49.2989
G1 X-14.2443 Y-49.3283
G1 X-14.2243 Y-49.3966
G1 X-14.2181 Y-49.4159
G1 X-14.1397 Y-49.6263
G1 X-14.1283 Y-49.6539
G1 X-14.0987 Y-49.7187
G1 X-14.0900 Y-49.7366
G1 X-13.9826 Y-49.9336
G1 X-13.9671 Y-49.9597
G1 X-13.9286 Y-50.0196
G1 X-13.9173 Y-50.0363
G1 X-13.7829 Y-50.2160
G1 X-13.7640 Y-50.2394
G1 X-13.7174 Y-50.2932
G1 X-13.7038 Y-50.3082
G1 X-13.5454 Y-50.4667
G1 X-13.5232 Y-50.4874
G1 X-13.4694 Y-50.5340
G1 X-13.4538 Y-50.5469
G1 X-13.2745 Y-50.6813
G1 X-13.2496 Y-50.6986
G1 X-13.1897 Y-50.7371
G1 X-13.1729 Y-50.7473
G1 X-12.9758 Y-50.8551
G1 X-12.9487 Y-50.8687
G1 X-12.8839 Y-50.8983
G1 X-12.8653 Y-50.9062
G1 X-12.6554 Y-50.9847
G1 X-12.6373 Y-50.9910
G1 X-12.6266 Y-50.9943
G1 X-12.5583 Y-51.0143
G1 X-12.5387 Y-51.0195
G1 X-12.3198 Y-51.0673
G1 X-12.2899 Y-51.0727
G1 X-12.2195 Y-51.0828
G1 X-12.1994 Y-51.0852
G1 X-11.9580 Y-51.1026
G1 X-11.9073 Y-51.1047
G1 X-11.8921 Y-51.1049
G1 X12.0122 Y-51.1049
G1 X12.0686 Y-51.1032
G1 X12.3195 Y-51.0852
G1 X12.3396 Y-51.0828
G1 X12.4200 Y-51.0711
G1 X12.4399 Y-51.0673
G1 X12.6581 Y-51.0197
G1 X12.6784 Y-51.0143
G1 X12.7564 Y-50.9913
G1 X12.7755 Y-50.9847
G1 X12.9857 Y-50.9061
G1 X13.0040 Y-50.8983
G1 X13.0773 Y-50.8647
G1 X13.0959 Y-50.8551
G1 X13.2925 Y-50.7476
G1 X13.3098 Y-50.7371
G1 X13.3781 Y-50.6930
G1 X13.3946 Y-50.6813
G1 X13.5741 Y-50.5468
G1 X13.5895 Y-50.5340
G1 X13.6509 Y-50.4807
G1 X13.6655 Y-50.4667
G1 X13.8238 Y-50.3083
G1 X13.8375 Y-50.2932
G1 X13.8907 Y-50.2317
G1 X13.9032 Y-50.2158
G1 X14.0374 Y-50.0363
G1 X14.0487 Y-50.0196
G1 X14.0920 Y-49.9521
G1 X14.1027 Y-49.9336
G1 X14.2100 Y-49.7368
G1 X14.2188 Y-49.7187
G1 X14.2484 Y-49.6539
G1 X14.2600 Y-49.6259
G1 X14.3348 Y-49.4254
G1 X14.3411 Y-49.4073
G1 X14.3444 Y-49.3966
G1 X14.3644 Y-49.3283
G1 X14.3696 Y-49.3087
G1 X14.4174 Y-49.0898
G1 X14.4228 Y-49.0599
G1 X14.4329 Y-48.9895
G1 X14.4353 Y-48.9694
G1 X14.4527 Y-48.7280
G1 X14.4535 Y-48.7129
G1 X14.4550 Y-48.6621
G1 X14.4550 Y10.8022
G1 X14.4548 Y10.8174
G1 X14.4527 Y10.8681
G1 X14.4353 Y11.1095
G1 X14.4329 Y11.1296
G1 X14.4228 Y11.2000
G1 X14.4174 Y11.2299
G1 X14.3698 Y11.4483
G1 X14.3644 Y11.4684
G1 X14.3444 Y11.5367
G1 X14.3348 Y11.5655
G1 X14.2562 Y11.7757
G1 X14.2484 Y11.7940
G1 X14.2148 Y11.8673
G1 X14.2052 Y11.8859
G1 X14.0977 Y12.0825
G1 X14.0872 Y12.0998
G1 X14.0487 Y12.1597
G1 X14.0314 Y12.1846
G1 X13.8969 Y12.3641
G1 X13.8841 Y12.3795
G1 X13.8308 Y12.4409
G1 X13.8168 Y12.4555
G1 X13.6584 Y12.6138
G1 X13.6433 Y12.6275
G1 X13.5818 Y12.6807
G1 X13.5659 Y12.6932
G1 X13.3864 Y12.8274
G1 X13.3697 Y12.8387
G1 X13.3022 Y12.8820
G1 X13.2837 Y12.8927
G1 X13.0869 Y13.0000
G1 X13.0688 Y13.0088
G1 X13.0040 Y13.0384
G1 X12.9760 Y13.0500
G1 X12.7755 Y13.1248
G1 X12.7574 Y13.1311
G1 X12.7467 Y13.1344
G1 X12.6784 Y13.1544
G1 X12.6588 Y13.1596
G1 X12.4399 Y13.2074
G1 X12.4100 Y13.2128
G1 X12.3396 Y13.2229
G1 X12.3195 Y13.2253
G1 X12.0781 Y13.2427
G1 X12.0630 Y13.2435
G1 X12.0122 Y13.2450
G1 X-11.8921 Y13.2450
G1 X-11.9486 Y13.2433
G1 X-12.1994 Y13.2253
G1 X-12.2195 Y13.2229
G1 X-12.2999 Y13.2112
G1 X-12.3198 Y13.2074
G1 X-12.5381 Y13.1598
G1 X-12.5583 Y13.1544
G1 X-12.6362 Y13.1314
G1 X-12.6554 Y13.1248
G1 X-12.8656 Y13.0462
G1 X-12.8839 Y13.0384
G1 X-12.9572 Y13.0048
G1 X-12.9758 Y12.9952
G1 X-13.1724 Y12.8877
G1 X-13.1897 Y12.8772
G1 X-13.2580 Y12.8331
G1 X-13.2745 Y12.8214
G1 X-13.4540 Y12.6869
G1 X-13.4694 Y12.6741
G1 X-13.5308 Y12.6208
G1 X-13.5454 Y12.6068
G1 X-13.7037 Y12.4484
G1 X-13.7174 Y12.4333
G1 X-13.7706 Y12.3718
G1 X-13.7831 Y12.3559
G1 X-13.9173 Y12.1764
G1 X-13.9286 Y12.1597
G1 X-13.9719 Y12.0922
G1 X-13.9826 Y12.0737
G1 X-14.0899 Y11.8770
G1 X-14.0987 Y11.8588
G1 X-14.1283 Y11.7940
G1 X-14.1399 Y11.7660
G1 X-14.2147 Y11.5655
G1 X-14.2210 Y11.5474
G1 X-14.2243 Y11.5367
G1 X-14.2443 Y11.4684
G1 X-14.2495 Y11.4488
G1 X-14.2973 Y11.2299
G1 X-14.3027 Y11.2000
G1 X-14.3128 Y11.1296
G1 X-14.3152 Y11.1095
G1 X-14.3326 Y10.8681
G1 X-14.3334 Y10.8530
G1 X-14.3349 Y10.8022
G1 X-14.3349 Y-48.6621
G1 X-14.3334 Y-48.7129
G1 Z2.0000
G1 X-26.4125 Y-52.4853
G1 F60.00
G1 Z-0.1500
G1 F120.00
G1 X-26.6100 Y-52.4756
G1 X-26.8074 Y-52.4853
G1 X-27.0029 Y-52.5143
G1 X-27.1947 Y-52.5624
G1 X-27.3808 Y-52.6290
G1 X-27.5595 Y-52.7135
G1 X-27.7290 Y-52.8151
G1 X-27.8878 Y-52.9329
G1 X-28.0343 Y-53.0656
G1 X-28.1670 Y-53.2121
G1 X-28.2848 Y-53.3709
G1 X-28.3864 Y-53.5404
G1 X-28.4709 Y-53.7191
G1 X-28.5375 Y-53.9052
G1 X-28.5856 Y-54.0970
G1 X-28.6146 Y-54.2925
G1 X-28.6243 Y-54.4900
G1 X-28.6146 Y-54.6874
G1 X-28.5856 Y-54.8829
G1 X-28.5375 Y-55.0747
G1 X-28.4709 Y-55.2608
G1 X-28.3864 Y-55.4395
G1 X-28.2848 Y-55.6090
G1 X-28.1670 Y-55.7678
G1 X-28.0343 Y-55.9143
G1 X-27.8878 Y-56.0470
G1 X-27.7290 Y-56.1648
G1 X-27.5595 Y-56.2664
G1 X-27.3808 Y-56.3509
G1 X-27.1947 Y-56.4175
G1 X-27.0029 Y-56.4656
G1 X-26.8074 Y-56.4946
G1 X-26.6100 Y-56.5043
G1 X-26.4125 Y-56.4946
G1 X-26.2170 Y-56.4656
G1 X-26.0252 Y-56.4175
G1 X-25.8391 Y-56.3509
G1 X-25.6604 Y-56.2664
G1 X-25.4909 Y-56.1648
G1 X-25.3321 Y-56.0470
G1 X-25.1856 Y-55.9143
G1 X-25.0529 Y-55.7678
G1 X-24.9351 Y-55.6090
G1 X-24.8335 Y-55.4395
G1 X-24.7490 Y-55.2608
G1 X-24.6824 Y-55.0747
G1 X-24.6343 Y-54.8829
G1 X-24.6053 Y-54.6874
G1 X-24.5956 Y-54.4900
G1 X-24.6053 Y-54.2925
G1 X-24.6343 Y-54.0970
G1 X-24.6824 Y-53.9052
G1 X-24.7490 Y-53.7191
G1 X-24.8335 Y-53.5404
G1 X-24.9351 Y-53.3709
G1 X-25.0529 Y-53.2121
G1 X-25.1856 Y-53.0656
G1 X-25.3321 Y-52.9329
G1 X-25.4909 Y-52.8151
G1 X-25.6604 Y-52.7135
G1 X-25.8391 Y-52.6290
G1 X-26.0252 Y-52.5624
G1 X-26.2170 Y-52.5143
G1 X-26.4125 Y-52.4853
G1 X-25.3300 Y-56.0451
G1 X-27.8899 Y-56.0451
G1 X-28.3291 Y-55.5351
G1 X-24.8908 Y-55.5351
G1 X-24.6700 Y-55.0251
G1 X-28.5499 Y-55.0251
G1 X-28.6230 Y-54.5151
G1 X-24.5969 Y-54.5151
G1 X-24.6573 Y-54.0051
G1 X-28.5626 Y-54.0051
G1 X-28.3593 Y-53.4951
G1 X-24.8606 Y-53.4951
G1 X-25.2744 Y-52.9851
G1 X-27.9455 Y-52.9851
G1 Z2.0000
G1 X-29.8849 Y-53.5939
G1 F60.00
G1 Z-0.1500
G1 F120.00
G1 X-29.8849 Y-60.3149
G1 X-29.3749 Y-60.3149
G1 X-29.3749 Y-55.8056
G1 Z2.0000
G1 X-30.3949 Y-53.6123
G1 F60.00
G1 Z-0.1500
G1 F120.00
G1 X-30.3949 Y-60.3149
G1 X-30.9049 Y-60.3149
G1 X-30.9049 Y-53.4822
G1 Z2.0000
G1 X-31.4149 Y-53.1779
G1 F60.00
G1 Z-0.1500
G1 F120.00
G1 X-31.4149 Y-60.3149
G1 X-31.9249 Y-60.3149
G1 X-31.9249 Y-52.5256
G1 Z2.0000
G1 X-29.6596 Y-54.7953
G1 F60.00
G1 Z-0.1500
G1 F120.00
G1 X-29.6571 Y-54.8160
G1 X-29.6205 Y-55.0625
G1 X-29.6150 Y-55.0927
G1 X-29.6105 Y-55.1131
G1 X-29.5499 Y-55.3548
G1 X-29.5415 Y-55.3843
G1 X-29.5349 Y-55.4042
G1 X-29.4510 Y-55.6388
G1 X-29.4397 Y-55.6674
G1 X-29.4312 Y-55.6865
G1 X-29.3247 Y-55.9118
G1 X-29.3153 Y-55.9304
G1 X-29.3004 Y-55.9572
G1 X-29.1722 Y-56.1710
G1 X-29.1556 Y-56.1968
G1 X-29.1436 Y-56.2139
G1 X-28.9951 Y-56.4141
G1 X-28.9823 Y-56.4305
G1 X-28.9624 Y-56.4539
G1 X-28.7950 Y-56.6386
G1 X-28.7807 Y-56.6537
G1 X-28.7586 Y-56.6750
G1 X-28.5739 Y-56.8424
G1 X-28.5505 Y-56.8623
G1 X-28.5341 Y-56.8751
G1 X-28.3339 Y-57.0236
G1 X-28.3168 Y-57.0356
G1 X-28.2999 Y-57.0468
G1 X-28.0772 Y-57.1804
G1 X-28.0504 Y-57.1953
G1 X-28.0318 Y-57.2047
G1 X-27.8065 Y-57.3112
G1 X-27.7874 Y-57.3197
G1 X-27.7588 Y-57.3310
G1 X-27.5242 Y-57.4149
G1 X-27.5043 Y-57.4215
G1 X-27.4748 Y-57.4299
G1 X-27.2331 Y-57.4905
G1 X-27.2127 Y-57.4950
G1 X-27.1825 Y-57.5005
G1 X-26.9256 Y-57.5385
G1 X-26.9055 Y-57.5406
G1 X-26.8847 Y-57.5421
G1 X-26.6357 Y-57.5544
G1 X-26.6149 Y-57.5549
G1 X-26.5842 Y-57.5544
G1 X-26.3352 Y-57.5421
G1 X-26.3144 Y-57.5406
G1 X-26.2943 Y-57.5385
G1 X-26.0374 Y-57.5005
G1 X-26.0168 Y-57.4969
G1 X-25.9970 Y-57.4929
G1 X-25.7350 Y-57.4272
G1 X-25.7056 Y-57.4183
G1 X-25.6130 Y-57.3853
G1 X-25.6747 Y-57.5650
G1 X-25.6808 Y-57.5841
G1 X-25.6859 Y-57.6035
G1 X-25.6919 Y-57.6330
G1 X-25.7342 Y-57.8871
G1 X-25.7374 Y-57.9171
G1 X-25.7385 Y-57.9472
G1 X-25.7385 Y-58.1947
G1 X-25.7380 Y-58.2148
G1 X-25.7366 Y-58.2348
G1 X-25.7327 Y-58.2647
G1 X-25.6902 Y-58.5188
G1 X-25.6835 Y-58.5481
G1 X-25.6747 Y-58.5769
G1 X-25.5943 Y-58.8111
G1 X-25.5873 Y-58.8299
G1 X-25.5795 Y-58.8484
G1 X-25.5661 Y-58.8754
G1 X-25.4434 Y-59.1019
G1 X-25.4275 Y-59.1275
G1 X-25.4099 Y-59.1519
G1 X-25.2578 Y-59.3472
G1 X-25.2451 Y-59.3628
G1 X-25.2317 Y-59.3777
G1 X-25.2103 Y-59.3989
G1 X-25.0207 Y-59.5733
G1 X-24.9974 Y-59.5923
G1 X-24.9727 Y-59.6097
G1 X-24.7655 Y-59.7451
G1 X-24.7484 Y-59.7557
G1 X-24.7309 Y-59.7654
G1 X-24.7038 Y-59.7785
G1 X-24.4678 Y-59.8819
G1 X-24.4396 Y-59.8923
G1 X-24.4203 Y-59.8981
G1 X-24.1706 Y-59.9615
G1 X-24.1412 Y-59.9679
G1 X-24.1114 Y-59.9721
G1 X-23.8547 Y-59.9935
G1 X-23.8313 Y-59.9948
G1 X-23.8196 Y-59.9949
G1 X23.9524 Y-59.9948
G1 X23.9742 Y-59.9937
G1 X24.2034 Y-59.9761
G1 X24.2259 Y-59.9737
G1 X24.2370 Y-59.9721
G1 X24.2592 Y-59.9680
G1 X24.2703 Y-59.9655
G1 X24.5110 Y-59.9076
G1 X24.5400 Y-59.8995
G1 X24.5590 Y-59.8930
G1 X24.5776 Y-59.8856
G1 X24.8055 Y-59.7888
G1 X24.8238 Y-59.7805
G1 X24.8417 Y-59.7714
G1 X24.8676 Y-59.7561
G1 X25.0765 Y-59.6232
G1 X25.1013 Y-59.6061
G1 X25.1171 Y-59.5938
G1 X25.1324 Y-59.5807
G1 X25.3165 Y-59.4152
G1 X25.3381 Y-59.3943
G1 X25.3583 Y-59.3719
G1 X25.5190 Y-59.1706
G1 X25.5369 Y-59.1464
G1 X25.5479 Y-59.1296
G1 X25.5581 Y-59.1123
G1 X25.6785 Y-58.8959
G1 X25.6878 Y-58.8782
G1 X25.6963 Y-58.8600
G1 X25.7074 Y-58.8320
G1 X25.7906 Y-58.5988
G1 X25.7968 Y-58.5797
G1 X25.8022 Y-58.5604
G1 X25.8086 Y-58.5310
G1 X25.8522 Y-58.2873
G1 X25.8565 Y-58.2575
G1 X25.8581 Y-58.2375
G1 X25.8588 Y-58.2174
G1 X25.8618 Y-57.9698
G1 X25.8611 Y-57.9397
G1 X25.8582 Y-57.9098
G1 X25.8189 Y-57.6552
G1 X25.8133 Y-57.6256
G1 X25.8083 Y-57.6061
G1 X25.8025 Y-57.5869
G1 X25.7358 Y-57.3848
G1 X25.8247 Y-57.4165
G1 X25.8550 Y-57.4257
G1 X26.1069 Y-57.4890
G1 X26.1273 Y-57.4935
G1 X26.1472 Y-57.4974
G1 X26.4040 Y-57.5356
G1 X26.4345 Y-57.5391
G1 X26.4553 Y-57.5406
G1 X26.7147 Y-57.5533
G1 X26.7350 Y-57.5534
G1 X26.7558 Y-57.5529
G1 X27.0048 Y-57.5406
G1 X27.0256 Y-57.5391
G1 X27.0561 Y-57.5356
G1 X27.3026 Y-57.4990
G1 X27.3328 Y-57.4935
G1 X27.3532 Y-57.4890
G1 X27.6050 Y-57.4257
G1 X27.6244 Y-57.4200
G1 X27.6443 Y-57.4134
G1 X27.8789 Y-57.3295
G1 X27.9075 Y-57.3182
G1 X27.9266 Y-57.3098
G1 X28.1519 Y-57.2032
G1 X28.1792 Y-57.1892
G1 X28.1973 Y-57.1789
G1 X28.4111 Y-57.0507
G1 X28.4288 Y-57.0396
G1 X28.4540 Y-57.0221
G1 X28.6542 Y-56.8736
G1 X28.6782 Y-56.8546
G1 X28.6940 Y-56.8409
G1 X28.8805 Y-56.6719
G1 X28.9008 Y-56.6522
G1 X28.9151 Y-56.6371
G1 X29.0894 Y-56.4446
G1 X29.1024 Y-56.4290
G1 X29.1152 Y-56.4126
G1 X29.2637 Y-56.2124
G1 X29.2812 Y-56.1872
G1 X29.2923 Y-56.1695
G1 X29.4205 Y-55.9557
G1 X29.4354 Y-55.9289
G1 X29.4448 Y-55.9103
G1 X29.5513 Y-55.6850
G1 X29.5598 Y-55.6659
G1 X29.5711 Y-55.6374
G1 X29.6550 Y-55.4027
G1 X29.6616 Y-55.3829
G1 X29.6700 Y-55.3534
G1 X29.7306 Y-55.1116
G1 X29.7351 Y-55.0912
G1 X29.7390 Y-55.0713
G1 X29.7772 Y-54.8145
G1 X29.7807 Y-54.7840
G1 X29.7822 Y-54.7632
G1 X29.7945 Y-54.5142
G1 X29.7950 Y-54.4836
G1 X29.7945 Y-54.4627
G1 X29.7816 Y-54.2033
G1 X29.7797 Y-54.1832
G1 X29.7772 Y-54.1625
G1 X29.7406 Y-53.9159
G1 X29.7370 Y-53.8953
G1 X29.7330 Y-53.8755
G1 X29.6673 Y-53.6135
G1 X29.6584 Y-53.5841
G1 X29.6254 Y-53.4915
G1 X29.8051 Y-53.5532
G1 X29.8242 Y-53.5593
G1 X29.8436 Y-53.5644
G1 X29.8731 Y-53.5704
G1 X30.1272 Y-53.6127
G1 X30.1572 Y-53.6159
G1 X30.1772 Y-53.6169
G1 X30.4449 Y-53.6169
G1 X30.4749 Y-53.6151
G1 X30.5048 Y-53.6112
G1 X30.7490 Y-53.5704
G1 X30.7785 Y-53.5644
G1 X30.7979 Y-53.5593
G1 X30.8170 Y-53.5532
G1 X31.0606 Y-53.4694
G1 X31.0885 Y-53.4580
G1 X31.1155 Y-53.4446
G1 X31.3332 Y-53.3268
G1 X31.3592 Y-53.3115
G1 X31.3758 Y-53.3004
G1 X31.3920 Y-53.2884
G1 X31.5873 Y-53.1363
G1 X31.6029 Y-53.1236
G1 X31.6178 Y-53.1102
G1 X31.6390 Y-53.0888
G1 X31.8067 Y-52.9067
G1 X31.8199 Y-52.8916
G1 X31.8324 Y-52.8759
G1 X31.8498 Y-52.8513
G1 X31.9852 Y-52.6440
G1 X32.0007 Y-52.6182
G1 X32.0144 Y-52.5914
G1 X32.1180 Y-52.3555
G1 X32.1291 Y-52.3276
G1 X32.1354 Y-52.3085
G1 X32.1408 Y-52.2892
G1 X32.2016 Y-52.0492
G1 X32.2080 Y-52.0197
G1 X32.2122 Y-51.9899
G1 X32.2336 Y-51.7332
G1 X32.2349 Y-51.7098
G1 X32.2350 Y-51.6981
G1 X32.2350 Y51.9412
G1 X32.2345 Y51.9629
G1 X32.2162 Y52.2030
G1 X32.2138 Y52.2255
G1 X32.2122 Y52.2367
G1 X32.2081 Y52.2589
G1 X32.2056 Y52.2699
G1 X32.1452 Y52.5203
G1 X32.1365 Y52.5491
G1 X32.1257 Y52.5772
G1 X32.0289 Y52.8051
G1 X32.0206 Y52.8234
G1 X32.0115 Y52.8413
G1 X31.9962 Y52.8672
G1 X31.8578 Y53.0845
G1 X31.8401 Y53.1089
G1 X31.8208 Y53.1320
G1 X31.6553 Y53.3161
G1 X31.6415 Y53.3307
G1 X31.6271 Y53.3446
G1 X31.6042 Y53.3642
G1 X31.4107 Y53.5186
G1 X31.3865 Y53.5365
G1 X31.3697 Y53.5475
G1 X31.3524 Y53.5577
G1 X31.1360 Y53.6781
G1 X31.1092 Y53.6918
G1 X31.0908 Y53.6998
G1 X31.0721 Y53.7070
G1 X30.8389 Y53.7902
G1 X30.8198 Y53.7965
G1 X30.8005 Y53.8019
G1 X30.7711 Y53.8082
G1 X30.5274 Y53.8518
G1 X30.4976 Y53.8561
G1 X30.4776 Y53.8578
G1 X30.4575 Y53.8585
G1 X30.2099 Y53.8614
G1 X30.1798 Y53.8607
G1 X30.1499 Y53.8578
G1 X29.8953 Y53.8186
G1 X29.8657 Y53.8129
G1 X29.8462 Y53.8080
G1 X29.8270 Y53.8021
G1 X29.6258 Y53.7357
G1 X29.6579 Y53.8257
G1 X29.6673 Y53.8565
G1 X29.7306 Y54.1084
G1 X29.7351 Y54.1288
G1 X29.7390 Y54.1487
G1 X29.7772 Y54.4055
G1 X29.7807 Y54.4360
G1 X29.7822 Y54.4568
G1 X29.7949 Y54.7162
G1 X29.7950 Y54.7364
G1 X29.7945 Y54.7573
G1 X29.7822 Y55.0063
G1 X29.7807 Y55.0271
G1 X29.7772 Y55.0575
G1 X29.7404 Y55.3058
G1 X29.7351 Y55.3343
G1 X29.7306 Y55.3546
G1 X29.6673 Y55.6065
G1 X29.6616 Y55.6259
G1 X29.6550 Y55.6457
G1 X29.5711 Y55.8804
G1 X29.5598 Y55.9090
G1 X29.5513 Y55.9280
G1 X29.4448 Y56.1534
G1 X29.4308 Y56.1807
G1 X29.4205 Y56.1988
G1 X29.2923 Y56.4126
G1 X29.2812 Y56.4302
G1 X29.2637 Y56.4555
G1 X29.1152 Y56.6557
G1 X29.0962 Y56.6797
G1 X29.0825 Y56.6955
G1 X28.9151 Y56.8802
G1 X28.8938 Y56.9022
G1 X28.8787 Y56.9166
G1 X28.6862 Y57.0909
G1 X28.6706 Y57.1039
G1 X28.6542 Y57.1167
G1 X28.4540 Y57.2652
G1 X28.4288 Y57.2827
G1 X28.4111 Y57.2938
G1 X28.1973 Y57.4220
G1 X28.1705 Y57.4369
G1 X28.1519 Y57.4463
G1 X27.9266 Y57.5528
G1 X27.9075 Y57.5613
G1 X27.8789 Y57.5725
G1 X27.6443 Y57.6565
G1 X27.6244 Y57.6631
G1 X27.5949 Y57.6715
G1 X27.3532 Y57.7320
G1 X27.3328 Y57.7366
G1 X27.3129 Y57.7404
G1 X27.0561 Y57.7787
G1 X27.0256 Y57.7822
G1 X27.0048 Y57.7837
G1 X26.7558 Y57.7960
G1 X26.7251 Y57.7965
G1 X26.7043 Y57.7960
G1 X26.4449 Y57.7831
G1 X26.4247 Y57.7812
G1 X26.4040 Y57.7787
G1 X26.1575 Y57.7421
G1 X26.1369 Y57.7385
G1 X26.1171 Y57.7345
G1 X25.8551 Y57.6688
G1 X25.8257 Y57.6599
G1 X25.7316 Y57.6264
G1 X25.7929 Y57.8051
G1 X25.7990 Y57.8242
G1 X25.8042 Y57.8436
G1 X25.8102 Y57.8731
G1 X25.8524 Y58.1272
G1 X25.8556 Y58.1572
G1 X25.8566 Y58.1772
G1 X25.8566 Y58.4449
G1 X25.8548 Y58.4749
G1 X25.8509 Y58.5048
G1 X25.8102 Y58.7490
G1 X25.8042 Y58.7785
G1 X25.7990 Y58.7979
G1 X25.7929 Y58.8170
G1 X25.7092 Y59.0606
G1 X25.6977 Y59.0885
G1 X25.6843 Y59.1155
G1 X25.5665 Y59.3332
G1 X25.5513 Y59.3592
G1 X25.5401 Y59.3758
G1 X25.5281 Y59.3920
G1 X25.3761 Y59.5873
G1 X25.3634 Y59.6029
G1 X25.3499 Y59.6178
G1 X25.3285 Y59.6390
G1 X25.1464 Y59.8067
G1 X25.1313 Y59.8199
G1 X25.1156 Y59.8324
G1 X25.0910 Y59.8498
G1 X24.8837 Y59.9852
G1 X24.8579 Y60.0007
G1 X24.8311 Y60.0144
G1 X24.5953 Y60.1180
G1 X24.5673 Y60.1291
G1 X24.5482 Y60.1354
G1 X24.5289 Y60.1408
G1 X24.2889 Y60.2016
G1 X24.2594 Y60.2080
G1 X24.2296 Y60.2122
G1 X23.9729 Y60.2336
G1 X23.9495 Y60.2349
G1 X23.9378 Y60.2350
G1 X-23.8196 Y60.2350
G1 X-23.8413 Y60.2345
G1 X-23.8522 Y60.2338
G1 X-24.0814 Y60.2162
G1 X-24.1039 Y60.2138
G1 X-24.1262 Y60.2103
G1 X-24.1483 Y60.2056
G1 X-24.3890 Y60.1477
G1 X-24.4084 Y60.1425
G1 X-24.4275 Y60.1365
G1 X-24.4556 Y60.1257
G1 X-24.6835 Y60.0289
G1 X-24.7018 Y60.0206
G1 X-24.7197 Y60.0115
G1 X-24.7456 Y59.9962
G1 X-24.9545 Y59.8633
G1 X-24.9793 Y59.8462
G1 X-25.0028 Y59.8274
G1 X-25.1945 Y59.6553
G1 X-25.2162 Y59.6344
G1 X-25.2298 Y59.6196
G1 X-25.2426 Y59.6042
G1 X-25.3970 Y59.4107
G1 X-25.4149 Y59.3865
G1 X-25.4311 Y59.3611
G1 X-25.5565 Y59.1360
G1 X-25.5702 Y59.1092
G1 X-25.5783 Y59.0908
G1 X-25.5854 Y59.0721
G1 X-25.6686 Y58.8389
G1 X-25.6777 Y58.8102
G1 X-25.6847 Y58.7809
G1 X-25.7303 Y58.5274
G1 X-25.7345 Y58.4976
G1 X-25.7362 Y58.4776
G1 X-25.7369 Y58.4575
G1 X-25.7398 Y58.2099
G1 X-25.7391 Y58.1798
G1 X-25.7362 Y58.1499
G1 X-25.6970 Y57.8953
G1 X-25.6913 Y57.8657
G1 X-25.6864 Y57.8462
G1 X-25.6805 Y57.8270
G1 X-25.6141 Y57.6258
G1 X-25.7041 Y57.6579
G1 X-25.7349 Y57.6673
G1 X-25.9868 Y57.7306
G1 X-26.0072 Y57.7351
G1 X-26.0271 Y57.7390
G1 X-26.2839 Y57.7772
G1 X-26.3144 Y57.7807
G1 X-26.3352 Y57.7822
G1 X-26.5946 Y57.7949
G1 X-26.6149 Y57.7950
G1 X-26.6357 Y57.7945
G1 X-26.8847 Y57.7822
G1 X-26.9055 Y57.7807
G1 X-26.9360 Y57.7772
G1 X-27.1851 Y57.7402
G1 X-27.2127 Y57.7351
G1 X-27.2331 Y57.7306
G1 X-27.4849 Y57.6673
G1 X-27.5043 Y57.6616
G1 X-27.5242 Y57.6550
G1 X-27.7588 Y57.5711
G1 X-27.7874 Y57.5598
G1 X-27.8065 Y57.5513
G1 X-28.0318 Y57.4448
G1 X-28.0591 Y57.4308
G1 X-28.0772 Y57.4205
G1 X-28.2910 Y57.2923
G1 X-28.3087 Y57.2812
G1 X-28.3339 Y57.2637
G1 X-28.5341 Y57.1152
G1 X-28.5581 Y57.0962
G1 X-28.5739 Y57.0825
G1 X-28.7604 Y56.9135
G1 X-28.7807 Y56.8938
G1 X-28.7950 Y56.8787
G1 X-28.9624 Y56.6940
G1 X-28.9761 Y56.6782
G1 X-28.9951 Y56.6542
G1 X-29.1436 Y56.4540
G1 X-29.1556 Y56.4369
G1 X-29.1722 Y56.4111
G1 X-29.3004 Y56.1973
G1 X-29.3153 Y56.1705
G1 X-29.3247 Y56.1519
G1 X-29.4312 Y55.9266
G1 X-29.4397 Y55.9075
G1 X-29.4510 Y55.8789
G1 X-29.5349 Y55.6443
G1 X-29.5415 Y55.6244
G1 X-29.5499 Y55.5949
G1 X-29.6105 Y55.3532
G1 X-29.6150 Y55.3328
G1 X-29.6189 Y55.3129
G1 X-29.6571 Y55.0561
G1 X-29.6606 Y55.0256
G1 X-29.6621 Y55.0048
G1 X-29.6744 Y54.7558
G1 X-29.6749 Y54.7251
G1 X-29.6744 Y54.7043
G1 X-29.6615 Y54.4449
G1 X-29.6596 Y54.4247
G1 X-29.6571 Y54.4040
G1 X-29.6205 Y54.1575
G1 X-29.6169 Y54.1369
G1 X-29.6129 Y54.1171
G1 X-29.5472 Y53.8551
G1 X-29.5383 Y53.8257
G1 X-29.5053 Y53.7331
G1 X-29.6850 Y53.7948
G1 X-29.7041 Y53.8009
G1 X-29.7235 Y53.8060
G1 X-29.7530 Y53.8120
G1 X-30.0071 Y53.8543
G1 X-30.0371 Y53.8575
G1 X-30.0571 Y53.8585
G1 X-30.3248 Y53.8585
G1 X-30.3548 Y53.8567
G1 X-30.3847 Y53.8528
G1 X-30.6289 Y53.8120
G1 X-30.6584 Y53.8060
G1 X-30.6778 Y53.8009
G1 X-30.6969 Y53.7948
G1 X-30.9405 Y53.7110
G1 X-30.9684 Y53.6996
G1 X-30.9954 Y53.6862
G1 X-31.2131 Y53.5684
G1 X-31.2391 Y53.5531
G1 X-31.2557 Y53.5419
G1 X-31.2719 Y53.5300
G1 X-31.4672 Y53.3779
G1 X-31.4828 Y53.3652
G1 X-31.4977 Y53.3518
G1 X-31.5189 Y53.3304
G1 X-31.6866 Y53.1482
G1 X-31.6998 Y53.1332
G1 X-31.7123 Y53.1175
G1 X-31.7297 Y53.0928
G1 X-31.8651 Y52.8856
G1 X-31.8806 Y52.8598
G1 X-31.8943 Y52.8330
G1 X-31.9979 Y52.5971
G1 X-32.0090 Y52.5692
G1 X-32.0153 Y52.5501
G1 X-32.0207 Y52.5307
G1 X-32.0815 Y52.2907
G1 X-32.0879 Y52.2613
G1 X-32.0921 Y52.2315
G1 X-32.1135 Y51.9748
G1 X-32.1148 Y51.9514
G1 X-32.1149 Y51.9397
G1 X-32.1148 Y-51.7105
G1 X-32.1137 Y-51.7322
G1 X-32.0961 Y-51.9614
G1 X-32.0950 Y-51.9727
G1 X-32.0921 Y-51.9951
G1 X-32.0880 Y-52.0173
G1 X-32.0855 Y-52.0283
G1 X-32.0276 Y-52.2690
G1 X-32.0195 Y-52.2980
G1 X-32.0130 Y-52.3170
G1 X-32.0056 Y-52.3356
G1 X-31.9088 Y-52.5635
G1 X-31.9005 Y-52.5818
G1 X-31.8914 Y-52.5997
G1 X-31.8761 Y-52.6257
G1 X-31.7377 Y-52.8429
G1 X-31.7200 Y-52.8673
G1 X-31.7007 Y-52.8904
G1 X-31.5352 Y-53.0745
G1 X-31.5214 Y-53.0891
G1 X-31.5070 Y-53.1031
G1 X-31.4841 Y-53.1227
G1 X-31.2906 Y-53.2770
G1 X-31.2664 Y-53.2949
G1 X-31.2496 Y-53.3059
G1 X-31.2323 Y-53.3161
G1 X-31.0159 Y-53.4365
G1 X-30.9982 Y-53.4458
G1 X-30.9800 Y-53.4543
G1 X-30.9520 Y-53.4654
G1 X-30.7188 Y-53.5486
G1 X-30.6997 Y-53.5549
G1 X-30.6804 Y-53.5603
G1 X-30.6510 Y-53.5666
G1 X-30.4073 Y-53.6103
G1 X-30.3775 Y-53.6145
G1 X-30.3575 Y-53.6162
G1 X-30.3374 Y-53.6169
G1 X-30.0898 Y-53.6198
G1 X-30.0597 Y-53.6191
G1 X-30.0298 Y-53.6162
G1 X-29.7752 Y-53.5770
G1 X-29.7456 Y-53.5713
G1 X-29.7261 Y-53.5664
G1 X-29.7069 Y-53.5605
G1 X-29.5057 Y-53.4941
G1 X-29.5378 Y-53.5841
G1 X-29.5472 Y-53.6149
G1 X-29.6129 Y-53.8770
G1 X-29.6169 Y-53.8968
G1 X-29.6205 Y-53.9174
G1 X-29.6585 Y-54.1743
G1 X-29.6606 Y-54.1944
G1 X-29.6621 Y-54.2152
G1 X-29.6744 Y-54.4642
G1 X-29.6749 Y-54.4850
G1 X-29.6744 Y-54.5157
G1 X-29.6621 Y-54.7647
G1 X-29.6596 Y-54.7953
G1 Z2.0000
G1 X-28.8649 Y-56.5615
G1 F60.00
G1 Z-0.1500
G1 F120.00
G1 X-28.8649 Y-60.3149
G1 X-28.3549 Y-60.3149
G1 X-28.3549 Y-57.0080
G1 Z2.0000
G1 X-27.8449 Y-57.2931
G1 F60.00
G1 Z-0.1500
G1 F120.00
G1 X-27.8449 Y-60.3149
G1 X-27.3349 Y-60.3149
G1 X-27.3349 Y-57.4649
G1 Z2.0000
G1 X-26.8249 Y-57.5451
G1 F60.00
G1 Z-0.1500
G1 F120.00
G1 X-26.8249 Y-60.3149
G1 X-26.3149 Y-60.3149
G1 X-26.3149 Y-57.5406
G1 Z2.0000
G1 X-25.8049 Y-57.4449
G1 F60.00
G1 Z-0.1500
G1 F120.00
G1 X-25.8049 Y-60.3149
G1 X-25.2949 Y-60.3149
G1 X-25.2949 Y-59.2996
G1 Z2.0000
G1 X-24.7849 Y-59.7324
G1 F60.00
G1 Z-0.1500
G1 F120.00
G1 X-24.7849 Y-60.3149
G1 X-24.2749 Y-60.3149
G1 X-24.2749 Y-59.9351
G1 Z2.0000
G1 X-23.7649 Y-59.9949
G1 F60.00
G1 Z-0.1500
G1 F120.00
G1 X-23.7649 Y-60.3149
G1 X-23.2549 Y-60.3149
G1 X-23.2549 Y-59.9949
G1 X-22.7449 Y-59.9949
G1 X-22.7449 Y-60.3149
G1 X-22.2349 Y-60.3149
G1 X-22.2349 Y-59.9949
G1 X-21.7249 Y-59.9949
G1 X-21.7249 Y-60.3149
G1 X-21.2149 Y-60.3149
G1 X-21.2149 Y-59.9949
G1 X-20.7049 Y-59.9949
G1 X-20.7049 Y-60.3149
G1 X-20.1949 Y-60.3149
G1 X-20.1949 Y-59.9949
G1 X-19.6849 Y-59.9949
G1 X-19.6849 Y-60.3149
G1 X-19.1749 Y-60.3149
G1 X-19.1749 Y-59.9949
G1 X-18.6649 Y-59.9949
G1 X-18.6649 Y-60.3149
G1 X-18.1549 Y-60.3149
G1 X-18.1549 Y-59.9949
G1 X-17.6449 Y-59.9949
G1 X-17.6449 Y-60.3149
G1 X-17.1349 Y-60.3149
G1 X-17.1349 Y-59.9949
G1 X-16.6249 Y-59.9949
G1 X-16.6249 Y-60.3149
G1 X-16.1149 Y-60.3149
G1 X-16.1149 Y-59.9949
G1 X-15.6049 Y-59.9949
G1 X-15.6049 Y-60.3149
G1 X-15.0949 Y-60.3149
G1 X-15.0949 Y-59.9949
G1 X-14.5849 Y-59.9949
G1 X-14.5849 Y-60.3149
G1 X-14.0749 Y-60.3149
G1 X-14.0749 Y-59.9949
G1 X-13.5649 Y-59.9949
G1 X-13.5649 Y-60.3149
G1 X-13.0549 Y-60.3149
G1 X-13.0549 Y-59.9949
G1 X-12.5449 Y-59.9949
G1 X-12.5449 Y-60.3149
G1 X-12.0349 Y-60.3149
G1 X-12.0349 Y-59.9949
G1 X-11.5249 Y-59.9949
G1 X-11.5249 Y-60.3149
G1 X-11.0149 Y-60.3149
G1 X-11.0149 Y-59.9949
G1 X-10.5049 Y-59.9949
G1 X-10.5049 Y-60.3149
G1 X-9.9949 Y-60.3149
G1 X-9.9949 Y-59.9949
G1 X-9.4849 Y-59.9949
G1 X-9.4849 Y-60.3149
G1 X-8.9749 Y-60.3149
G1 X-8.9749 Y-59.9949
G1 X-8.4649 Y-59.9949
G1 X-8.4649 Y-60.3149
G1 X-7.9549 Y-60.3149
G1 X-7.9549 Y-59.9949
G1 X-7.4449 Y-59.9949
G1 X-7.4449 Y-60.3149
G1 X-6.9349 Y-60.3149
G1 X-6.9349 Y-59.9949
G1 X-6.4249 Y-59.9949
G1 X-6.4249 Y-60.3149
G1 X-5.9149 Y-60.3149
G1 X-5.9149 Y-59.9949
G1 X-5.4049 Y-59.9949
G1 X-5.4049 Y-60.3149
G1 X-4.8949 Y-60.3149
G1 X-4.8949 Y-59.9949
G1 X-4.3849 Y-59.9949
G1 X-4.3849 Y-60.3149
G1 X-3.8749 Y-60.3149
G1 X-3.8749 Y-59.9949
G1 X-3.3649 Y-59.9949
G1 X-3.3649 Y-60.3149
G1 X-2.8549 Y-60.3149
G1 X-2.8549 Y-59.9949
G1 X-2.3449 Y-59.9949
G1 X-2.3449 Y-60.3149
G1 X-1.8349 Y-60.3149
G1 X-1.8349 Y-59.9949
G1 X-1.3249 Y-59.9949
G1 X-1.3249 Y-60.3149
G1 X-0.8149 Y-60.3149
G1 X-0.8149 Y-59.9949
G1 X-0.3049 Y-59.9949
G1 X-0.3049 Y-60.3149
G1 X0.2051 Y-60.3149
G1 X0.2051 Y-59.9949
G1 Z2.0000
G1 X0.7151 Y-59.9949
G1 F60.00
G1 Z-0.1500
G1 F120.00
G1 X0.7151 Y-60.3149
G1 X1.2251 Y-60.3149
G1 X1.2251 Y-59.9949
G1 X1.7351 Y-59.9949
G1 X1.7351 Y-60.3149
G1 X2.2451 Y-60.3149
G1 X2.2451 Y-59.9949
G1 X2.7551 Y-59.9949
G1 X2.7551 Y-60.3149
G1 X3.2651 Y-60.3149
G1 X3.2651 Y-59.9949
G1 X3.7751 Y-59.9949
G1 X3.7751 Y-60.3149
G1 X4.2851 Y-60.3149
G1 X4.2851 Y-59.9949
G1 X4.7951 Y-59.9949
G1 X4.7951 Y-60.3149
G1 X5.3051 Y-60.3149
G1 X5.3051 Y-59.9949
G1 X5.8151 Y-59.9949
G1 X5.8151 Y-60.3149
G1 X6.3251 Y-60.3149
G1 X6.3251 Y-59.9949
G1 X6.8351 Y-59.9949
G1 X6.8351 Y-60.3149
G1 X7.3451 Y-60.3149
G1 X7.3451 Y-59.9949
G1 X7.8551 Y-59.9949
G1 X7.8551 Y-60.3149
G1 X8.3651 Y-60.3149
G1 X8.3651 Y-59.9949
G1 X8.8751 Y-59.9949
G1 X8.8751 Y-60.3149
G1 X9.3851 Y-60.3149
G1 X9.3851 Y-59.9949
G1 X9.8951 Y-59.9949
G1 X9.8951 Y-60.3149
G1 X10.4051 Y-60.3149
G1 X10.4051 Y-59.9949
G1 X10.9151 Y-59.9949
G1 X10.9151 Y-60.3149
G1 X11.4251 Y-60.3149
G1 X11.4251 Y-59.9949
G1 X11.9351 Y-59.9949
G1 X11.9351 Y-60.3149
G1 X12.4451 Y-60.3149
G1 X12.4451 Y-59.9949
G1 X12.9551 Y-59.9949
G1 X12.9551 Y-60.3149
G1 X13.4651 Y-60.3149
G1 X13.4651 Y-59.9949
G1 X13.9751 Y-59.9949
G1 X13.9751 Y-60.3149
G1 X14.4851 Y-60.3149
G1 X14.4851 Y-59.9949
G1 X14.9951 Y-59.9949
G1 X14.9951 Y-60.3149
G1 X15.5051 Y-60.3149
G1 X15.5051 Y-59.9949
G1 X16.0151 Y-59.9949
G1 X16.0151 Y-60.3149
G1 X16.5251 Y-60.3149
G1 X16.5251 Y-59.9949
G1 X17.0351 Y-59.9949
G1 X17.0351 Y-60.3149
G1 X17.5451 Y-60.3149
G1 X17.5451 Y-59.9949
G1 X18.0551 Y-59.9949
G1 X18.0551 Y-60.3149
G1 X18.5651 Y-60.3149
G1 X18.5651 Y-59.9949
G1 X19.0751 Y-59.9949
G1 X19.0751 Y-60.3149
G1 X19.5851 Y-60.3149
G1 X19.5851 Y-59.9949
G1 X20.0951 Y-59.9949
G1 X20.0951 Y-60.3149
G1 X20.6051 Y-60.3149
G1 X20.6051 Y-59.9949
G1 X21.1151 Y-59.9949
G1 X21.1151 Y-60.3149
G1 X21.6251 Y-60.3149
G1 X21.6251 Y-59.9949
G1 X22.1351 Y-59.9949
G1 X22.1351 Y-60.3149
G1 X22.6451 Y-60.3149
G1 X22.6451 Y-59.9949
G1 X23.1551 Y-59.9949
G1 X23.1551 Y-60.3149
G1 X23.6651 Y-60.3149
G1 X23.6651 Y-59.9949
G1 Z2.0000
G1 X24.1751 Y-59.9782
G1 F60.00
G1 Z-0.1500
G1 F120.00
G1 X24.1751 Y-60.3149
G1 X24.6851 Y-60.3149
G1 X24.6851 Y-59.8399
G1 Z2.0000
G1 X25.1951 Y-59.5243
G1 F60.00
G1 Z-0.1500
G1 F120.00
G1 X25.1951 Y-60.3149
G1 X25.7051 Y-60.3149
G1 X25.7051 Y-58.8382
G1 X26.2151 Y-57.5076
G1 X26.2151 Y-60.3149
G1 X26.7251 Y-60.3149
G1 X26.7251 Y-57.5534
G1 Z2.0000
G1 X27.2351 Y-57.5090
G1 F60.00
G1 Z-0.1500
G1 F120.00
G1 X27.2351 Y-60.3149
G1 X27.7451 Y-60.3149
G1 X27.7451 Y-57.3774
G1 Z2.0000
G1 X28.2551 Y-57.1443
G1 F60.00
G1 Z-0.1500
G1 F120.00
G1 X28.2551 Y-60.3149
G1 X28.7651 Y-60.3149
G1 X28.7651 Y-56.7765
G1 Z2.0000
G1 X29.2751 Y-56.1962
G1 F60.00
G1 Z-0.1500
G1 F120.00
G1 X29.2751 Y-60.3149
G1 X29.7851 Y-60.3149
G1 X29.7851 Y-54.7049
G1 Z2.0000
G1 X29.7851 Y-54.2720
G1 F60.00
G1 Z-0.1500
G1 F120.00
G1 X29.7851 Y-53.5463
G1 Z2.0000
G1 X30.2951 Y-53.6170
G1 F60.00
G1 Z-0.1500
G1 F120.00
G1 X30.2951 Y-60.3149
G1 X30.8051 Y-60.3149
G1 X30.8051 Y-53.5571
G1 Z2.0000
G1 X31.3151 Y-53.3366
G1 F60.00
G1 Z-0.1500
G1 F120.00
G1 X31.3151 Y-60.3149
G1 X31.8251 Y-60.3149
G1 X31.8251 Y-52.8852
G1 X32.3351 Y-60.3149
G1 X32.3351 Y60.5550
G1 X31.8251 Y60.5550
G1 X31.8251 Y53.1271
G1 Z2.0000
G1 X31.3151 Y53.5784
G1 F60.00
G1 Z-0.1500
G1 F120.00
G1 X31.3151 Y60.5550
G1 X30.8051 Y60.5550
G1 X30.8051 Y53.8006
G1 Z2.0000
G1 X30.2951 Y53.8604
G1 F60.00
G1 Z-0.1500
G1 F120.00
G1 X30.2951 Y60.5550
G1 X29.7851 Y60.5550
G1 X29.7851 Y54.9480
G1 Z2.0000
G1 X29.7851 Y54.5151
G1 F60.00
G1 Z-0.1500
G1 F120.00
G1 X29.7851 Y53.7883
G1 Z2.0000
G1 X29.2751 Y56.4393
G1 F60.00
G1 Z-0.1500
G1 F120.00
G1 X29.2751 Y60.5550
G1 X28.7651 Y60.5550
G1 X28.7651 Y57.0196
G1 Z2.0000
G1 X28.2551 Y57.3873
G1 F60.00
G1 Z-0.1500
G1 F120.00
G1 X28.2551 Y60.5550
G1 X27.7451 Y60.5550
G1 X27.7451 Y57.6204
G1 Z2.0000
G1 X27.2351 Y57.7521
G1 F60.00
G1 Z-0.1500
G1 F120.00
G1 X27.2351 Y60.5550
G1 X26.7251 Y60.5550
G1 X26.7251 Y57.7965
G1 Z2.0000
G1 X26.2151 Y57.7506
G1 F60.00
G1 Z-0.1500
G1 F120.00
G1 X26.2151 Y60.5550
G1 X25.7051 Y60.5550
G1 X25.7051 Y59.0712
G1 Z2.0000
G1 X25.1951 Y59.7618
G1 F60.00
G1 Z-0.1500
G1 F120.00
G1 X25.1951 Y60.5550
G1 X24.6851 Y60.5550
G1 X24.6851 Y60.0786
G1 Z2.0000
G1 X25.7352 Y56.4809
G1 F60.00
G1 Z-0.1500
G1 F120.00
G1 X25.7352 Y52.9822
G1 X26.2452 Y52.7789
G1 X26.2452 Y56.6841
G1 X26.7552 Y56.7446
G1 X26.7552 Y52.7185
G1 X27.2652 Y52.7915
G1 X27.2652 Y56.6715
G1 X26.9275 Y56.7362
G1 X27.1230 Y56.7072
G1 X27.3148 Y56.6591
G1 X27.5009 Y56.5925
G1 X27.6796 Y56.5080
G1 X27.8491 Y56.4064
G1 X28.0079 Y56.2886
G1 X28.1544 Y56.1559
G1 X28.2871 Y56.0094
G1 X28.4049 Y55.8506
G1 X28.5065 Y55.6811
G1 X28.5910 Y55.5024
G1 X28.6576 Y55.3163
G1 X28.7057 Y55.1245
G1 X28.7347 Y54.9290
G1 X28.7444 Y54.7315
G1 X28.7347 Y54.5341
G1 X28.7057 Y54.3386
G1 X28.6576 Y54.1468
G1 X28.5910 Y53.9607
G1 X28.5065 Y53.7820
G1 X28.4049 Y53.6124
G1 X28.2871 Y53.4537
G1 X28.1544 Y53.3072
G1 X28.0079 Y53.1744
G1 X27.8491 Y53.0567
G1 X27.6796 Y52.9551
G1 X27.5009 Y52.8706
G1 X27.3148 Y52.8040
G1 X27.1230 Y52.7559
G1 X26.9275 Y52.7269
G1 X26.7300 Y52.7172
G1 X26.5326 Y52.7269
G1 X26.3371 Y52.7559
G1 X26.1453 Y52.8040
G1 X25.9592 Y52.8706
G1 X25.7805 Y52.9551
G1 X25.6110 Y53.0567
G1 X25.4522 Y53.1744
G1 X25.3057 Y53.3072
G1 X25.1730 Y53.4537
G1 X25.0552 Y53.6124
G1 X24.9536 Y53.7820
G1 X24.8691 Y53.9607
G1 X24.8025 Y54.1468
G1 X24.7544 Y54.3386
G1 X24.7254 Y54.5341
G1 X24.7157 Y54.7315
G1 X24.7254 Y54.9290
G1 X24.7544 Y55.1245
G1 X24.8025 Y55.3163
G1 X24.8691 Y55.5024
G1 X24.9536 Y55.6811
G1 X25.0552 Y55.8506
G1 X25.1730 Y56.0094
G1 X25.3057 Y56.1559
G1 X25.4522 Y56.2886
G1 X25.6110 Y56.4064
G1 X25.7805 Y56.5080
G1 X25.9592 Y56.5925
G1 X26.1453 Y56.6591
G1 X26.3371 Y56.7072
G1 X26.5326 Y56.7362
G1 X26.7300 Y56.7459
G1 X26.9275 Y56.7362
G1 X27.7752 Y56.4507
G1 X27.7752 Y53.0124
G1 X28.2852 Y53.4516
G1 X28.2852 Y56.0115
G1 X25.2252 Y56.0671
G1 X25.2252 Y53.3960
G1 Z2.0000
G1 X14.8750 Y51.7651
G1 F60.00
G1 Z-0.1500
G1 F120.00
G1 X14.8751 Y-51.5250
G1 X-14.7550 Y-51.5250
G1 X-14.7550 Y51.7650
G1 X14.8750 Y51.7651
G1 Z2.0000
G1 X25.7352 Y-52.7391
G1 F60.00
G1 Z-0.1500
G1 F120.00
G1 X25.7352 Y-56.2378
G1 X26.2452 Y-56.4411
G1 X26.2452 Y-52.5359
G1 X26.7552 Y-52.4754
G1 X26.7552 Y-56.5015
G1 X27.2652 Y-56.4285
G1 X27.2652 Y-52.5485
G1 X26.9275 Y-52.4838
G1 X27.1230 Y-52.5128
G1 X27.3148 Y-52.5609
G1 X27.5009 Y-52.6275
G1 X27.6796 Y-52.7120
G1 X27.8491 Y-52.8136
G1 X28.0079 Y-52.9314
G1 X28.1544 Y-53.0641
G1 X28.2871 Y-53.2106
G1 X28.4049 Y-53.3694
G1 X28.5065 Y-53.5389
G1 X28.5910 Y-53.7176
G1 X28.6576 Y-53.9037
G1 X28.7057 Y-54.0955
G1 X28.7347 Y-54.2910
G1 X28.7444 Y-54.4885
G1 X28.7347 Y-54.6859
G1 X28.7057 Y-54.8814
G1 X28.6576 Y-55.0732
G1 X28.5910 Y-55.2593
G1 X28.5065 Y-55.4380
G1 X28.4049 Y-55.6076
G1 X28.2871 Y-55.7663
G1 X28.1544 Y-55.9128
G1 X28.0079 Y-56.0456
G1 X27.8491 Y-56.1633
G1 X27.6796 Y-56.2649
G1 X27.5009 Y-56.3494
G1 X27.3148 Y-56.4160
G1 X27.1230 Y-56.4641
G1 X26.9275 Y-56.4931
G1 X26.7300 Y-56.5028
G1 X26.5326 Y-56.4931
G1 X26.3371 Y-56.4641
G1 X26.1453 Y-56.4160
G1 X25.9592 Y-56.3494
G1 X25.7805 Y-56.2649
G1 X25.6110 Y-56.1633
G1 X25.4522 Y-56.0456
G1 X25.3057 Y-55.9128
G1 X25.1730 Y-55.7663
G1 X25.0552 Y-55.6076
G1 X24.9536 Y-55.4380
G1 X24.8691 Y-55.2593
G1 X24.8025 Y-55.0732
G1 X24.7544 Y-54.8814
G1 X24.7254 Y-54.6859
G1 X24.7157 Y-54.4885
G1 X24.7254 Y-54.2910
G1 X24.7544 Y-54.0955
G1 X24.8025 Y-53.9037
G1 X24.8691 Y-53.7176
G1 X24.9536 Y-53.5389
G1 X25.0552 Y-53.3694
G1 X25.1730 Y-53.2106
G1 X25.3057 Y-53.0641
G1 X25.4522 Y-52.9314
G1 X25.6110 Y-52.8136
G1 X25.7805 Y-52.7120
G1 X25.9592 Y-52.6275
G1 X26.1453 Y-52.5609
G1 X26.3371 Y-52.5128
G1 X26.5326 Y-52.4838
G1 X26.7300 Y-52.4741
G1 X26.9275 Y-52.4838
G1 X27.7752 Y-52.7693
G1 X27.7752 Y-56.2076
G1 X28.2852 Y-55.7684
G1 X28.2852 Y-53.2085
G1 X25.2252 Y-53.1529
G1 X25.2252 Y-55.8240
G1 Z2.0000
G1 X32.5550 Y-60.3149
G1 F60.00
G1 Z-0.1500
G1 F120.00
G1 X-32.4349 Y-60.3149
G1 X-32.4349 Y60.5550
G1 X32.5550 Y60.5550
G1 X32.5550 Y-60.3149
G1 Z2.0000
M5
G1 Z2.0000
G1 Z15.00


