
G28
G90

G1 F120.00

M5
G1 Z15.0000

G1 X0.0000 Y0.0000

G1 Z15.0000

G1 F120.00
M3 S18000

G1 X-9.4650 Y54.0555
G1 Z-0.1755
G1 Z0
G1 Z2.0000
G1 X-11.3700 Y-56.9095
G1 Z-0.1755
G1 Z0
G1 Z2.0000
G1 X11.4900 Y-56.9095
G1 Z-0.1755
G1 Z0
G1 Z2.0000
G1 X-3.7500 Y-53.8145
G1 Z-0.1755
G1 Z0
G1 Z2.0000
G1 X3.8700 Y-53.8145
G1 Z-0.1755
G1 Z0
G1 Z2.0000
G1 X-11.3700 Y-49.4095
G1 Z-0.1755
G1 Z0
G1 Z2.0000
G1 X11.4900 Y-49.4095
G1 Z-0.1755
G1 Z0
G1 Z2.0000
G1 X-3.7500 Y-48.8145
G1 Z-0.1755
G1 Z0
G1 Z2.0000
G1 X3.8700 Y-48.8145
G1 Z-0.1755
G1 Z0
G1 Z2.0000
G1 X-21.3700 Y-31.6295
G1 Z-0.1755
G1 Z0
G1 Z2.0000
G1 X-11.3700 Y-31.6295
G1 Z-0.1755
G1 Z0
G1 Z2.0000
G1 X11.4900 Y-31.6295
G1 Z-0.1755
G1 Z0
G1 Z2.0000
G1 X21.4900 Y-31.6295
G1 Z-0.1755
G1 Z0
G1 Z2.0000
G1 X-21.3700 Y0.1205
G1 Z-0.1755
G1 Z0
G1 Z2.0000
G1 X-11.3700 Y0.1205
G1 Z-0.1755
G1 Z0
G1 Z2.0000
G1 X11.4900 Y0.1205
G1 Z-0.1755
G1 Z0
G1 Z2.0000
G1 X21.4900 Y0.1205
G1 Z-0.1755
G1 Z0
G1 Z2.0000
G1 X-21.5300 Y31.8705
G1 Z-0.1755
G1 Z0
G1 Z2.0000
G1 X-11.5300 Y31.8705
G1 Z-0.1755
G1 Z0
G1 Z2.0000
G1 X11.6500 Y31.8705
G1 Z-0.1755
G1 Z0
G1 Z2.0000
G1 X21.6500 Y31.8705
G1 Z-0.1755
G1 Z0
G1 Z2.0000
G1 X-3.7500 Y49.0155
G1 Z-0.1755
G1 Z0
G1 Z2.0000
G1 X3.8700 Y49.0155
G1 Z-0.1755
G1 Z0
G1 Z2.0000
G1 X9.5850 Y49.0155
G1 Z-0.1755
G1 Z0
G1 Z2.0000
G1 X-9.4650 Y49.0555
G1 Z-0.1755
G1 Z0
G1 Z2.0000
G1 X-3.7500 Y54.0155
G1 Z-0.1755
G1 Z0
G1 Z2.0000
G1 X3.8700 Y54.0155
G1 Z-0.1755
G1 Z0
G1 Z2.0000
G1 X9.5850 Y54.0155
G1 Z-0.1755
G1 Z0
G1 Z2.0000
M5
G1 Z2.00


