
G28
G90

G1 F60.00

G1 Z15.0000

G1 X0.0000 Y0.0000

G1 Z15.0000

G1 F60.00

G1 X-3.3400 Y14.0300
G1 Z0.6

G1 Z2.0000
G1 X-35.0900 Y11.5700
G1 Z0.6

G1 Z2.0000
G1 X-35.0900 Y14.0700
G1 Z0.6

G1 Z2.0000
G1 X-30.0720 Y2.6400
G1 Z0.6

G1 Z2.0000
G1 X-30.0720 Y6.4500
G1 Z0.6

G1 Z2.0000
G1 X-30.0100 Y11.5700
G1 Z0.6

G1 Z2.0000
G1 X-30.0100 Y16.5700
G1 Z0.6

G1 Z2.0000
G1 X-24.2950 Y11.5300
G1 Z0.6

G1 Z2.0000
G1 X-24.2950 Y14.0300
G1 Z0.6

G1 Z2.0000
G1 X-23.6600 Y21.6900
G1 Z0.6

G1 Z2.0000
G1 X-23.5970 Y17.8800
G1 Z0.6

G1 Z2.0000
G1 X-19.9120 Y2.6400
G1 Z0.6

G1 Z2.0000
G1 X-19.9120 Y6.4500
G1 Z0.6

G1 Z2.0000
G1 X-18.5800 Y12.8000
G1 Z0.6

G1 Z2.0000
G1 X-16.0400 Y2.6920
G1 Z0.6

G1 Z2.0000
G1 X-16.0400 Y7.6920
G1 Z0.6

G1 Z2.0000
G1 X-16.0400 Y12.8000
G1 Z0.6

G1 Z2.0000
G1 X-13.5000 Y12.8000
G1 Z0.6

G1 Z2.0000
G1 X-13.5000 Y21.6900
G1 Z0.6

G1 Z2.0000
G1 X-13.4370 Y17.8800
G1 Z0.6

G1 Z2.0000
G1 X-10.3250 Y2.6400
G1 Z0.6

G1 Z2.0000
G1 X-10.3250 Y5.1400
G1 Z0.6

G1 Z2.0000
G1 X-9.6900 Y8.9900
G1 Z0.6

G1 Z2.0000
G1 X-9.6900 Y16.6100
G1 Z0.6

G1 Z2.0000
G1 X-3.3400 Y11.5300
G1 Z0.6

G1 Z2.0000

G1 Z15.00


