G28
G90


G1 F1200

G1 Z15.0000

G1 X0.0000 Y0.0000

G1 Z15.0000

G1 F60.00

G1 X-3.3400 Y-10.9700
G1 Z0.6

G1 Z2.0000
G1 X-35.0900 Y-13.4300
G1 Z0.6

G1 Z2.0000
G1 X-35.0900 Y-10.9300
G1 Z0.6

G1 Z2.0000
G1 X-30.0720 Y-22.3600
G1 Z0.6

G1 Z2.0000
G1 X-30.0720 Y-18.5500
G1 Z0.6

G1 Z2.0000
G1 X-30.0100 Y-13.4300
G1 Z0.6

G1 Z2.0000
G1 X-30.0100 Y-8.4300
G1 Z0.6

G1 Z2.0000
G1 X-24.2950 Y-13.4700
G1 Z0.6

G1 Z2.0000
G1 X-24.2950 Y-10.9700
G1 Z0.6

G1 Z2.0000
G1 X-23.6600 Y-3.3100
G1 Z0.6

G1 Z2.0000
G1 X-23.5970 Y-7.1200
G1 Z0.6

G1 Z2.0000
G1 X-19.9120 Y-22.3600
G1 Z0.6

G1 Z2.0000
G1 X-19.9120 Y-18.5500
G1 Z0.6

G1 Z2.0000
G1 X-18.5800 Y-12.2000
G1 Z0.6

G1 Z2.0000
G1 X-16.0400 Y-22.3080
G1 Z0.6

G1 Z2.0000
G1 X-16.0400 Y-17.3080
G1 Z0.6

G1 Z2.0000
G1 X-16.0400 Y-12.2000
G1 Z0.6

G1 Z2.0000
G1 X-13.5000 Y-12.2000
G1 Z0.6

G1 Z2.0000
G1 X-13.5000 Y-3.3100
G1 Z0.6

G1 Z2.0000
G1 X-13.4370 Y-7.1200
G1 Z0.6

G1 Z2.0000
G1 X-10.3250 Y-22.3600
G1 Z0.6

G1 Z2.0000
G1 X-10.3250 Y-19.8600
G1 Z0.6

G1 Z2.0000
G1 X-9.6900 Y-16.0100
G1 Z0.6

G1 Z2.0000
G1 X-9.6900 Y-8.3900
G1 Z0.6

G1 Z2.0000
G1 X-3.3400 Y-13.4700
G1 Z0.6

G1 Z2.0000

G1 Z15.00


